{"id": "1884057", "nd_refs": ["20827842", "3814697125", "6469103635", "2869677788", "6595339284"], "highway": "secondary"}
{"id": "2077117", "nd_refs": ["6430873723", "6669045395", "6669045394", "6669045393", "6669045392", "663380257", "663380258", "6669045391", "663380259", "663380260", "6669045390", "663380261", "663380262", "663380218", "8965852", "10185379724", "663380263", "6337568192", "8965847", "6337568193", "3736931360", "663380264", "2069363597"], "highway": "residential"}
{"id": "2948473", "nd_refs": ["3342114063", "8186373908", "5029931535", "5336794245", "5336794205"], "highway": "footway"}
{"id": "3188360", "nd_refs": ["6364421415", "7125451288", "15405017", "5641003459", "1810714490", "9908592258", "7632356453", "15405025"], "highway": "pedestrian"}
{"id": "3188362", "nd_refs": ["10091222027", "3593631029", "15405041", "7125440651", "3593631033", "10091222028"], "highway": "unclassified"}
{"id": "3188384", "nd_refs": ["4101244700", "1070474093", "5843608312", "3604395329", "5843608262", "5843608263", "5843608270", "5843608266", "5843608269", "5843608264", "5843608268", "5843608265", "5843608267", "5843608254", "5843608261", "5843608260", "5843608259", "5843608253", "5843608251", "5843608250", "3899037441", "15405037", "8203851682", "9885509266", "3899037448", "9885509257", "173149648", "173149647", "10206705265", "4101244700"], "highway": "pedestrian"}
{"id": "3188409", "nd_refs": ["15405751", "9979034284", "5708672453", "5104352750", "5708672452"], "highway": "unclassified"}
{"id": "3188496", "nd_refs": ["1431619032", "15406809"], "highway": "service"}
{"id": "3188567", "nd_refs": ["15407250", "9354572189", "1843378034", "10197152402", "10197152380", "18249468"], "highway": "tertiary"}
{"id": "3190200", "nd_refs": ["8965676", "9006017851", "9006017865", "10187696156", "15449300", "935792194"], "highway": "secondary"}
{"id": "3679961", "nd_refs": ["15406809", "6936407747", "6946325378", "6581009152", "1810714488"], "highway": "footway"}
{"id": "3987217", "nd_refs": ["20827843", "6936407749", "9979034282", "2768731151", "2059128233", "2839093647", "2843788717", "9888818911", "20827844"], "highway": "pedestrian"}
{"id": "3987224", "nd_refs": ["20827954", "9908592260", "20827955"], "highway": "footway"}
{"id": "3987251", "nd_refs": ["1810713242", "6594415690", "9354572185", "3093498723", "3091904768", "9354572186", "1843372413"], "highway": "secondary"}
{"id": "3987252", "nd_refs": ["20828187", "10187841605", "20828186"], "highway": "service"}
{"id": "3987254", "nd_refs": ["8482565353", "8482565359", "8482565358", "8482565357", "8482565356", "8482565355", "8482565354", "5129743444", "8482565360", "8482565361"], "highway": "footway"}
{"id": "3987255", "nd_refs": ["4352358513", "10210187367", "4352358512", "20828195", "4352358511", "10210187366", "4352358510", "10210187365", "4352358509", "4352358500", "10210187364", "4352358508", "4352358507", "4352358506", "4352358505", "20828195", "10210187368", "10210187369", "20828196"], "highway": "steps"}
{"id": "4282997", "nd_refs": ["25843327", "5336794174", "5336794173", "3342992653", "5336794172", "5336794171", "3724300030", "5336794170", "5336794169", "8186373900", "5029931535", "5336794168", "5336794167", "1798923585", "5336794166", "25843319", "5336794165", "5336794132", "5029931536", "5336794164", "5336794163", "25843320", "5336794162", "33152352", "5336794161", "5336794160", "5336794131"], "highway": "cycleway"}
{"id": "4354612", "nd_refs": ["3921428766", "6669045402", "1430709335", "1430709334", "5940648888"], "highway": "residential"}
{"id": "4354653", "nd_refs": ["20827941", "10241424306", "1652421827", "3593631026"], "highway": "unclassified"}
{"id": "5011671", "nd_refs": ["15405036", "3899037416"], "highway": "unclassified"}
{"id": "18076823", "nd_refs": ["5336794127", "5336794126", "5336794128", "363605544", "2030907794"], "highway": "footway"}
{"id": "24479025", "nd_refs": ["15406809", "11165923586", "10031673089"], "highway": "service"}
{"id": "28013966", "nd_refs": ["5336794131", "33152351", "3724300041", "8203851683"], "highway": "cycleway"}
{"id": "31813295", "nd_refs": ["356199769", "10245932134", "2200698937", "356199770", "356199771"], "highway": "service"}
{"id": "31813305", "nd_refs": ["2200698937", "356201188"], "highway": "service"}
{"id": "34695427", "nd_refs": ["15449302", "10187679265", "10927817002", "15449304"], "highway": "secondary"}
{"id": "34695430", "nd_refs": ["15449304", "10927817001", "6460865498", "10197163417", "10197152414", "5641003455", "6594385361", "6766449283"], "highway": "secondary"}
{"id": "36328670", "nd_refs": ["1614492632", "5336794143", "3899037437", "15405751", "9716927141", "5869708115", "3593631038", "20827843", "3593631039", "6076004409", "6460865499", "6936407770", "13757743"], "highway": "secondary"}
{"id": "39159168", "nd_refs": ["17395607", "26625768", "3921428838", "15449298", "262241908", "2690130793", "3921428833", "1570660682", "2504574892"], "highway": "motorway_link"}
{"id": "47108011", "nd_refs": ["17395607", "26625772", "3888716382"], "highway": "motorway"}
{"id": "47108023", "nd_refs": ["26377067", "4173877381", "7671950876"], "highway": "motorway"}
{"id": "47108026", "nd_refs": ["284157791", "3923047872", "3923047869", "5337904035"], "highway": "motorway_link"}
{"id": "47108028", "nd_refs": ["2504574889", "4206622898"], "highway": "cycleway"}
{"id": "47108029", "nd_refs": ["11017413614", "11017413613"], "highway": "motorway"}
{"id": "47108030", "nd_refs": ["17395606", "600645166"], "highway": "motorway"}
{"id": "47108031", "nd_refs": ["600645166", "17395604", "600645167"], "highway": "motorway"}
{"id": "47108032", "nd_refs": ["600645162", "600645164"], "highway": "motorway_link"}
{"id": "47108033", "nd_refs": ["600645164", "600645165"], "highway": "motorway_link"}
{"id": "48949051", "nd_refs": ["9006017861", "1559338253", "403820531", "10245932145", "15449302"], "highway": "cycleway"}
{"id": "50540208", "nd_refs": ["5336794139", "5336794125", "5336794138", "5029931533", "3178836434"], "highway": "footway"}
{"id": "50540209", "nd_refs": ["5336794222", "5336794268", "5336794190"], "highway": "footway"}
{"id": "50540212", "nd_refs": ["363605544", "3724299613", "5337904106", "5337904117"], "highway": "footway"}
{"id": "50540214", "nd_refs": ["5336794222", "5336794221", "5336794220", "3724299600", "5336794219", "5336794218", "5336794139", "5336794217", "5336794216", "5336794215", "3724299609", "5336794214", "5336794213", "5336794127", "5336794212", "3724299601", "5336794211", "3724299603", "5336794210", "5336794124", "5336794209", "5336794208", "3342114066", "5336794207", "3724299604", "5336794206", "5336794205", "5336794204", "3342114064", "5336794203", "5336794202", "642998284", "5336794134", "5336794201", "3724299605", "5336794200", "3724299606", "5336794199", "5336794198", "5336794130", "5336794197", "642998288", "5336794196", "3724299607", "5336794195", "5336794194", "5336794137", "5336794193", "642998290", "5336794192", "5336794191", "3724299608", "5336794222"], "highway": "footway"}
{"id": "52438407", "nd_refs": ["8965854", "3736931367", "8568912753", "8568912755", "1430709351"], "highway": "footway"}
{"id": "52751189", "nd_refs": ["669409879", "9920391815", "3899037421", "9920391814", "3899037453", "9920391813", "9920391812", "3899037423", "3899037447", "3899037446", "9920391811", "3899037443", "9920391816", "3899037435"], "highway": "primary_link"}
{"id": "52751193", "nd_refs": ["3899037435", "3899037430", "3899037425", "13757741"], "highway": "secondary"}
{"id": "52754201", "nd_refs": ["6936407765", "669414291"], "highway": "footway"}
{"id": "62090292", "nd_refs": ["2913816018", "5202998655", "5202998656", "2913816017", "10187841425", "10187841473", "1070474101", "9723964660", "10187841483", "5134492810", "10197020155", "5692890292", "935792210", "10197152389", "10197020156", "9006017867", "9006017863", "935792194"], "highway": "cycleway"}
{"id": "77345178", "nd_refs": ["910403665", "10187696154", "1853769119"], "highway": "service"}
{"id": "77527073", "nd_refs": ["17395602", "3921428836", "1836528392", "1838293520", "1836528391", "3921428783", "1836528390", "3921421044", "1836528389", "1836528388", "3921428785", "1836528387", "1834940611", "17395592", "703021718", "1834940610", "3921421042", "1832328649", "15407228", "3921428819"], "highway": "motorway"}
{"id": "77527229", "nd_refs": ["1430709355", "912514868", "8735304014", "3921674125"], "highway": "tertiary"}
{"id": "77527247", "nd_refs": ["11074352633", "20828187", "10187836113", "9723964654", "10074592708", "6595339282", "77956752", "10187841545", "657739700", "2839095020", "10187841539", "10187841535", "8109412", "10187841537", "569936709", "18249036"], "highway": "unclassified"}
{"id": "84735111", "nd_refs": ["984106536", "3899037438"], "highway": "unclassified"}
{"id": "92203075", "nd_refs": ["5029931540", "1070474100", "9920391746", "8203851669"], "highway": "cycleway"}
{"id": "92203500", "nd_refs": ["363605544", "642998262", "10204969804", "8186373898", "3342114063"], "highway": "footway"}
{"id": "110611491", "nd_refs": ["26627332", "5346799664", "1262720356", "5346799672", "5346799673", "5346799674", "5346799675", "5346799676", "5346799671", "5346799670", "5346799669", "5346799668", "1262720170", "5346799667", "5346799666", "5346799665", "26627332"], "highway": "pedestrian"}
{"id": "110611492", "nd_refs": ["26627332", "5887487533", "5887487534", "26627333"], "highway": "footway"}
{"id": "129086737", "nd_refs": ["935792194", "9006017858", "1559338256", "10187679266", "10245932144", "15449302"], "highway": "secondary"}
{"id": "129086738", "nd_refs": ["935792194", "1424924874", "9006017860", "9006017866", "4206622897", "6076031966", "10197020145", "10188047658", "1424924873"], "highway": "cycleway"}
{"id": "129087878", "nd_refs": ["8965847", "10187696067", "10187696063", "26526075", "10187696065", "10187696070", "11017413620"], "highway": "tertiary"}
{"id": "129194905", "nd_refs": ["8965676", "403820490"], "highway": "tertiary"}
{"id": "129388679", "nd_refs": ["403820498", "9006017859", "6076031967", "9484889181", "10197020144", "10188047659", "1427601760"], "highway": "tertiary"}
{"id": "129736085", "nd_refs": ["3921428766", "6669045403", "1430709338", "3921428811", "8568912752", "6669045398", "6669045397", "3921428794", "6669045396", "6669086805"], "highway": "residential"}
{"id": "129736087", "nd_refs": ["1430709374", "1430709371"], "highway": "footway"}
{"id": "129736090", "nd_refs": ["1430709376", "2200698948"], "highway": "footway"}
{"id": "129736092", "nd_refs": ["1430709371", "1430709366", "1430709362", "1430709360", "10187696109"], "highway": "footway"}
{"id": "129820126", "nd_refs": ["1431619032", "10554083483", "10554083482", "2999125456", "2039208664", "2999125565", "10031673090", "2281643758", "10188047867", "10188047835", "1431619031"], "highway": "unclassified"}
{"id": "129820130", "nd_refs": ["15406807", "10554083481", "10554083484", "1431619032"], "highway": "unclassified"}
{"id": "142481275", "nd_refs": ["1559338251", "10187696254", "1559338253", "1559338256"], "highway": "service"}
{"id": "142598667", "nd_refs": ["284157573", "3923047243", "284157574", "1267061663"], "highway": "motorway"}
{"id": "142598668", "nd_refs": ["1267061663", "284157788", "284157576"], "highway": "motorway"}
{"id": "143528251", "nd_refs": ["1570660787", "6669141831", "363605544"], "highway": "footway"}
{"id": "143528254", "nd_refs": ["5337904105", "642998261", "3724299612", "642998262", "25843327"], "highway": "cycleway"}
{"id": "143528256", "nd_refs": ["5337904107", "5337904108", "5337907335", "5337907334", "5337907333", "5337907332", "5337907331", "5337907330", "5337907329", "5337907328", "5337907327", "5337907326", "5337907325", "5337907324", "5337907323", "5337907322", "5337907336", "5337904105", "5337907321", "5337904120", "5337904119", "5337904118", "5337904117", "5337904116", "5337904115", "5337904114", "5337904113", "5337904112", "5337904111", "5337904110", "5337904109", "5337904107"], "highway": "cycleway"}
{"id": "143655272", "nd_refs": ["1661846572", "1572139744", "7713053806", "8107779", "7713053808", "1572139764"], "highway": "footway"}
{"id": "143655273", "nd_refs": ["8965672", "1802197322", "2347342139"], "highway": "pedestrian"}
{"id": "148338565", "nd_refs": ["1839978225", "1839978226", "666758946", "8965853", "5601109474", "2583512633", "1433169519", "3736931365", "3736931366", "2583512628", "10791344952", "2583512644", "2583514115", "3736931358", "2583514168", "2583512626", "8965854", "666758945"], "highway": "cycleway"}
{"id": "151667031", "nd_refs": ["33165422", "10927835707", "1843372368", "5147327949", "183991315"], "highway": "unclassified"}
{"id": "151667360", "nd_refs": ["33165422", "10927835709", "9026550666", "10672024886", "10672024887", "5641003461", "10554083504", "10554083503"], "highway": "pedestrian"}
{"id": "152425771", "nd_refs": ["8965680", "7625728524"], "highway": "primary"}
{"id": "152425773", "nd_refs": ["1652421827", "1652421826"], "highway": "living_street"}
{"id": "152425777", "nd_refs": ["1652421826", "9942803981"], "highway": "steps"}
{"id": "153515854", "nd_refs": ["1661846522", "10117862521", "15449293", "9006017853", "9006017855", "8965676"], "highway": "motorway_link"}
{"id": "162845216", "nd_refs": ["1810714488", "6694044644", "6946325380", "6946325372", "10672024888", "2200728000", "1810714497"], "highway": "service"}
{"id": "165581748", "nd_refs": ["2045059233", "9643106737", "20827955"], "highway": "service"}
{"id": "165581762", "nd_refs": ["1810714497", "7125451287"], "highway": "footway"}
{"id": "165581960", "nd_refs": ["9942803988", "1652421825", "9942803981"], "highway": "footway"}
{"id": "168248903", "nd_refs": ["20827842", "6469355493", "6469103640", "6594415688", "10928020367", "20827843"], "highway": "unclassified"}
{"id": "169069535", "nd_refs": ["15405036", "669409879"], "highway": "primary"}
{"id": "169196489", "nd_refs": ["5274384182", "7713053821", "8107782", "4206622899", "10074592738", "10187836023", "1834926050", "10187836022", "4206622900", "598872805", "18249497"], "highway": "footway"}
{"id": "169913458", "nd_refs": ["6364421415", "10554083503", "6594385358", "10197152415", "6766449279", "10578673316", "6766449283"], "highway": "pedestrian"}
{"id": "172801485", "nd_refs": ["20959246", "3921428823", "1836532445", "3921428781", "3921428818", "1838293519", "1836532446", "3921428777", "1836532447", "3921428792", "1836532448", "3921428839", "1836532449", "1836532450", "3921428775", "1836532451", "1836532452"], "highway": "motorway"}
{"id": "172801486", "nd_refs": ["1661846531", "9006017837", "9006017838", "1661846526", "9006017839", "1661846525", "9006017840", "1661846524", "1661846521", "9006017841", "9006017842", "1661846520", "9006017843", "2504574889"], "highway": "cycleway"}
{"id": "172802137", "nd_refs": ["26627334", "3921428778", "1836538652"], "highway": "motorway"}
{"id": "172997518", "nd_refs": ["7671950875", "2221787124", "1836538650", "3921428837", "26377067"], "highway": "motorway"}
{"id": "173543260", "nd_refs": ["1843378034", "1843379968", "10187841570", "10197152353"], "highway": "service"}
{"id": "173543920", "nd_refs": ["1843379966", "1843379968", "5345737924", "1843379970"], "highway": "service"}
{"id": "174712796", "nd_refs": ["1853769119", "10187696205", "910403658"], "highway": "service"}
{"id": "174712797", "nd_refs": ["18249980", "10187696212", "292825595", "10187696087", "10187696088", "973540748", "10187696089", "1853769091", "292825591", "1853769120", "11145818510", "11017413615"], "highway": "unclassified"}
{"id": "174712798", "nd_refs": ["598916870", "10187696138", "10187696139"], "highway": "steps"}
{"id": "176345592", "nd_refs": ["1868840763", "1614453439"], "highway": "footway"}
{"id": "176345593", "nd_refs": ["1868840765", "1614453459"], "highway": "footway"}
{"id": "176345595", "nd_refs": ["1868840761", "1614453475"], "highway": "footway"}
{"id": "179724734", "nd_refs": ["1843372368", "282162212"], "highway": "service"}
{"id": "196628463", "nd_refs": ["2069361264", "2069361263", "5203022541", "3921428804", "11017413616"], "highway": "service"}
{"id": "196628464", "nd_refs": ["2069361275", "3921421046", "8064715821"], "highway": "motorway_link"}
{"id": "196628465", "nd_refs": ["2069361275", "2069361261"], "highway": "service"}
{"id": "196628877", "nd_refs": ["2069363597", "10188341478", "2069363596"], "highway": "residential"}
{"id": "196628964", "nd_refs": ["2069361269", "1895566792", "2069364804", "2069364803", "2069361261", "2069361259", "2069361264"], "highway": "service"}
{"id": "196628965", "nd_refs": ["2069361269", "3921428832", "3921428827", "2069361275"], "highway": "motorway_link"}
{"id": "196629577", "nd_refs": ["600645165", "15449297", "171396452"], "highway": "motorway_link"}
{"id": "196842707", "nd_refs": ["26377067", "3921428828", "2071355946", "2071355945", "3921428813", "3921428829", "2179446338", "1855070222"], "highway": "motorway_link"}
{"id": "196842708", "nd_refs": ["2071355945", "2071355947"], "highway": "service"}
{"id": "207466246", "nd_refs": ["18249497", "10187841608", "10187841609", "4206622901"], "highway": "footway"}
{"id": "209916694", "nd_refs": ["1430709369", "5203022541", "1430709370"], "highway": "footway"}
{"id": "209916695", "nd_refs": ["2200698948", "1430709378", "1430709369"], "highway": "footway"}
{"id": "229243308", "nd_refs": ["5336794144", "13757737"], "highway": "footway"}
{"id": "234923866", "nd_refs": ["1895566795", "26377068"], "highway": "motorway"}
{"id": "234923867", "nd_refs": ["1844861836", "8003006278", "8003006277", "17395610", "26628045", "17395609", "3921428800", "3921428806", "17395608", "17395607"], "highway": "motorway"}
{"id": "235330386", "nd_refs": ["20827840", "10769919176", "2307234353", "5129785666", "2030907798", "2045043330", "1746593226", "3593631024", "15405025"], "highway": "unclassified"}
{"id": "243014970", "nd_refs": ["403820490", "1425901342", "9006017854", "910403665", "18249980", "5289340994", "10188047625", "10188047624", "8320040"], "highway": "tertiary"}
{"id": "244122267", "nd_refs": ["9780863879", "10206705296", "9780863928", "10206705298", "9780863849", "9780863859", "9780863957"], "highway": "footway"}
{"id": "244122271", "nd_refs": ["9780863918", "9780863907", "9780863909", "9780863847", "10207318746"], "highway": "footway"}
{"id": "244140638", "nd_refs": ["8588632", "9723964659", "20828186"], "highway": "unclassified"}
{"id": "245021279", "nd_refs": ["1843372413", "321335154", "10187841486", "9354572190", "15407250"], "highway": "secondary"}
{"id": "245021282", "nd_refs": ["6766449283", "6936407758", "6766449278", "6399693695", "1810714489", "5800270052", "6594385362", "2623017281", "6766449277", "6766449275", "6766449276", "6936407767", "13757743"], "highway": "pedestrian"}
{"id": "245021283", "nd_refs": ["13757743", "6594385367", "6594385366", "6936407774", "10197152403", "6936407780", "984106536"], "highway": "secondary"}
{"id": "245021284", "nd_refs": ["984106536", "6936407779", "10197152350", "10197152344", "10197152379", "18249468"], "highway": "secondary"}
{"id": "245175318", "nd_refs": ["666758945", "5601097676", "1839978211", "1839978209"], "highway": "cycleway"}
{"id": "245175319", "nd_refs": ["1839978209", "5387993218", "1430709376"], "highway": "cycleway"}
{"id": "245175320", "nd_refs": ["1430709376", "5387993217", "1839978235", "1839978197"], "highway": "cycleway"}
{"id": "245175321", "nd_refs": ["8474815114", "7713053809", "1839978254", "1839978213", "1868840761", "1868840763", "1868840765", "6901195287", "5387993423", "4352358504"], "highway": "cycleway"}
{"id": "245175322", "nd_refs": ["4352358504", "5387993422", "1839978252", "1614453436", "1614453441", "5346799703", "20827853"], "highway": "cycleway"}
{"id": "245266108", "nd_refs": ["2524935398", "6595339283", "10187836086", "6595339282", "10187836083", "6595339281", "6595339280", "6595339279", "10187836069", "6595339278", "6595339277", "10187841477", "8588632"], "highway": "service"}
{"id": "245266111", "nd_refs": ["6594415685", "6469355491", "6469355487", "6594385369", "6595339284"], "highway": "service"}
{"id": "245893071", "nd_refs": ["2529920941", "2529920947", "10187836052", "2505088824", "2529920938", "10187836051", "2513627567", "2505088822", "10187836050", "10187836049", "4173877382", "7669412787"], "highway": "motorway_link"}
{"id": "252133053", "nd_refs": ["15405030", "9784704081", "15405041", "7125440643", "9784704094", "5104321435", "9784704044", "5104321437"], "highway": "pedestrian"}
{"id": "252133054", "nd_refs": ["15405025", "9908592259", "6477161889", "5994772052", "6477161890", "26526386", "15405030"], "highway": "pedestrian"}
{"id": "252253878", "nd_refs": ["15405025", "3593631028", "20827954", "9888821420", "9885532914", "20827844"], "highway": "unclassified"}
{"id": "256665085", "nd_refs": ["2623017281", "6766449273", "2623017282"], "highway": "footway"}
{"id": "271950350", "nd_refs": ["2768731151", "2768731140"], "highway": "steps"}
{"id": "271950351", "nd_refs": ["2768731140", "2768731141", "2768731158", "2768731149", "2768731148", "2768731142", "2768731150"], "highway": "path"}
{"id": "271950352", "nd_refs": ["2768731146", "6936415893"], "highway": "footway"}
{"id": "271950353", "nd_refs": ["2768731151", "2768731153"], "highway": "steps"}
{"id": "271950354", "nd_refs": ["2768731153", "2768731154", "2768731157", "2768731156", "2768731155", "2768731149"], "highway": "path"}
{"id": "273641207", "nd_refs": ["18249468", "10197152381", "356199769", "3921675465", "10245932148", "10245932147", "15449302"], "highway": "tertiary"}
{"id": "273641208", "nd_refs": ["18249468", "10197152378", "10197152401", "10187841617", "10197152390", "935792210", "18249478"], "highway": "secondary"}
{"id": "275155409", "nd_refs": ["2347342139", "1661846572", "8107775"], "highway": "pedestrian"}
{"id": "280227715", "nd_refs": ["284157576", "284157791"], "highway": "motorway"}
{"id": "280227718", "nd_refs": ["2843788717", "3593631037", "2843788716", "5301806242", "2843788715", "5301806241", "5301806240", "2843788714", "5301806239", "1909569303", "5301806237", "5301806238", "3899099943", "9888818909", "2859245324"], "highway": "footway"}
{"id": "282238523", "nd_refs": ["6936407748", "2059128232", "2861806158"], "highway": "footway"}
{"id": "311692479", "nd_refs": ["6936407781", "984106536"], "highway": "secondary"}
{"id": "318665310", "nd_refs": ["3460538731", "9354572187", "1843372413"], "highway": "unclassified"}
{"id": "324139693", "nd_refs": ["13757741", "5336794141", "1614492632"], "highway": "primary"}
{"id": "324139694", "nd_refs": ["1614492632", "5336794142", "1802422531", "1802422532"], "highway": "primary"}
{"id": "324785023", "nd_refs": ["6766449283", "1810714493", "6936407757", "2045059279", "2859245324", "9888816853", "3593631035", "20827844"], "highway": "secondary"}
{"id": "324785034", "nd_refs": ["15406807", "10927835706", "33165422", "10927835708", "6062494839", "6077631494", "10927817004", "10578673314", "15449304"], "highway": "secondary"}
{"id": "324785049", "nd_refs": ["15449304", "10927817003", "6399693693", "2623017282", "10197152349", "6936407781"], "highway": "secondary"}
{"id": "326810851", "nd_refs": ["4352358501", "4352358502", "3334850010", "4352358499", "3334850011", "5218828729", "3334850012", "3334850014", "6665792250", "3334850016", "3334850019", "3334850018", "3921421053", "3334850017", "3921428789", "3334850015", "3921428808", "5387572075", "5387572094", "5387572093", "3334850008", "3334850006"], "highway": "footway"}
{"id": "338902448", "nd_refs": ["3899037438", "3460538725", "3460538727", "10197152353", "3460538730", "10197152351", "10197152352", "1843372413"], "highway": "service"}
{"id": "353552750", "nd_refs": ["3593631039", "20827843", "3593631038", "9979034281", "2240252471", "2240252472", "5869708289", "5869708175", "5869708174", "5869708128", "9888818912", "3593631036", "9888821423", "20827844", "3593631035", "9888818910", "3593631037", "5869708311", "2059125854", "2861806158", "2753614979", "5800270953", "2753614977", "2768731153", "2768731140", "2240253352", "6936407750", "3593631039"], "highway": "pedestrian"}
{"id": "353552760", "nd_refs": ["3593631026", "3593631027", "9784672410", "15405030", "3593631032", "3593631030", "26526386", "3593631026"], "highway": "pedestrian"}
{"id": "353552761", "nd_refs": ["3593631029", "15405041", "7125440651", "3593631033", "9885509258", "3039274500", "7125440649", "3039274501", "3593631034", "5104321436", "3420655031", "3593631031", "10986175020", "3593631029"], "highway": "pedestrian"}
{"id": "353552763", "nd_refs": ["5641003464", "8401079061", "8401079062", "10628342886", "7632356452", "3593631024", "15405025", "3593631028", "7632356454", "9908592262", "10628342898", "3593631025", "15405017", "5641003464"], "highway": "pedestrian"}
{"id": "353552765", "nd_refs": ["3593631027", "9784672410", "15405030", "3593631032", "3909934229", "3909934223", "9885509259", "3593631033", "7125440651", "15405041", "3593631029", "3593631027"], "highway": "pedestrian"}
{"id": "353552766", "nd_refs": ["3593631024", "15405025", "3593631028", "9908592261", "8377066867", "3593631030", "26526386", "3593631026", "3593631024"], "highway": "pedestrian"}
{"id": "368575992", "nd_refs": ["3724300031", "3724300032", "3724300035", "3724300038", "8186373901", "5336794132", "5336794133", "5336794134"], "highway": "footway"}
{"id": "368575994", "nd_refs": ["3342114063", "8186373899", "9780863922", "3724300039", "11074344405"], "highway": "footway"}
{"id": "368575996", "nd_refs": ["5029931540", "9780863945", "3724300036", "5029931538", "9780863944", "3724300037", "3724300038", "9780863946", "3724300039"], "highway": "footway"}
{"id": "368576001", "nd_refs": ["3724300043", "3724299615", "6669189438", "6669189572", "3724299614", "6669189421"], "highway": "footway"}
{"id": "369957945", "nd_refs": ["1839978235", "7713053818", "3736931344"], "highway": "footway"}
{"id": "369957946", "nd_refs": ["3736931345", "3736931344"], "highway": "steps"}
{"id": "369957947", "nd_refs": ["7713053817", "3736931347"], "highway": "steps"}
{"id": "369957948", "nd_refs": ["3736931344", "7713053817", "3736931346", "1839978254"], "highway": "footway"}
{"id": "369957949", "nd_refs": ["3736931345", "7713053815", "2347342139", "3736931347"], "highway": "pedestrian"}
{"id": "369957950", "nd_refs": ["3736931346", "7713053819", "5274384182"], "highway": "footway"}
{"id": "369957952", "nd_refs": ["3736931352", "15449288"], "highway": "steps"}
{"id": "369957953", "nd_refs": ["15449288", "8568912749", "1430709339"], "highway": "footway"}
{"id": "369957954", "nd_refs": ["8568912753", "8568912748", "3736931353"], "highway": "footway"}
{"id": "369957955", "nd_refs": ["3736931354", "3736931355"], "highway": "steps"}
{"id": "369957956", "nd_refs": ["3736931356", "3736931357"], "highway": "steps"}
{"id": "369957958", "nd_refs": ["3736931354", "2583512644"], "highway": "footway"}
{"id": "369957959", "nd_refs": ["3736931358", "3736931356"], "highway": "footway"}
{"id": "369957960", "nd_refs": ["3736931357", "9988363764", "3736931359"], "highway": "footway"}
{"id": "369957963", "nd_refs": ["3736931362", "3736931363"], "highway": "steps"}
{"id": "369957964", "nd_refs": ["3736931361", "3736931364"], "highway": "steps"}
{"id": "369957965", "nd_refs": ["3736931363", "10185377168", "3736931365"], "highway": "footway"}
{"id": "369957966", "nd_refs": ["3736931364", "3736931366"], "highway": "footway"}
{"id": "369957967", "nd_refs": ["3736931367", "3736931352"], "highway": "footway"}
{"id": "369957969", "nd_refs": ["8568912754", "2583512626"], "highway": "steps"}
{"id": "378056657", "nd_refs": ["669409879", "13757741"], "highway": "primary"}
{"id": "378599616", "nd_refs": ["7264998809", "5116487775", "5116487778", "5116487779", "10187841424", "10187841472", "8588632"], "highway": "unclassified"}
{"id": "385523800", "nd_refs": ["3888716382", "26625424", "7671950878"], "highway": "motorway"}
{"id": "389002191", "nd_refs": ["18249478", "10197152394", "3921674122"], "highway": "secondary"}
{"id": "389002192", "nd_refs": ["3921674125", "10187836054", "3921674121", "3921674124", "3921674122"], "highway": "secondary_link"}
{"id": "398295481", "nd_refs": ["9920391743", "9920391749", "3899037434", "3899037452", "3899037451", "3899037435"], "highway": "secondary"}
{"id": "408466887", "nd_refs": ["4103896198", "9885509263", "9885532912", "15405036"], "highway": "primary"}
{"id": "408466890", "nd_refs": ["1802422532", "5337904036", "1743936319"], "highway": "primary"}
{"id": "408466893", "nd_refs": ["8377066868", "4103896198"], "highway": "primary"}
{"id": "408468005", "nd_refs": ["2045059225", "5147320980", "5869708122", "9979034279", "15405751"], "highway": "unclassified"}
{"id": "415672735", "nd_refs": ["2768731150", "2768731143", "2768731145", "2768731146"], "highway": "footway"}
{"id": "420725759", "nd_refs": ["8107782", "4206622902", "4206622903", "10187836024", "4206622904", "4206622905"], "highway": "footway"}
{"id": "431128674", "nd_refs": ["4303762705", "4303762702", "4303762701", "4303762700", "4303762698", "5243972321", "4303762697", "4303762699", "4303762703", "4303762704", "5243973136", "4303762720", "5243973140", "4303762721", "5243973398", "4303762724", "4303762727", "9484825189", "4303762726", "4303762725", "5243973178", "4303762723", "4303762722", "5243972513"], "highway": "footway"}
{"id": "437420477", "nd_refs": ["4352350815", "4352350816", "3736931352"], "highway": "steps"}
{"id": "478243190", "nd_refs": ["15407240", "15406807"], "highway": "secondary"}
{"id": "524527022", "nd_refs": ["5104321437", "5104321438"], "highway": "steps"}
{"id": "524527024", "nd_refs": ["5104321438", "3420655031"], "highway": "pedestrian"}
{"id": "524946780", "nd_refs": ["18249478", "10197152388", "9006017868", "9006017862", "15449300", "403820498"], "highway": "tertiary"}
{"id": "524946781", "nd_refs": ["7264998807", "10197020153", "5692890291", "18249478"], "highway": "unclassified"}
{"id": "525297847", "nd_refs": ["5104352750", "9716927140", "5110505993", "5104352751"], "highway": "service"}
{"id": "527689020", "nd_refs": ["5129712051", "5129717500", "5129712040", "5129712043"], "highway": "service"}
{"id": "527689021", "nd_refs": ["5129712047", "5129712042"], "highway": "service"}
{"id": "527689022", "nd_refs": ["5129717499", "5129712037", "5129712051", "5129712041", "5129712044"], "highway": "service"}
{"id": "527689024", "nd_refs": ["5129712042", "5129717499"], "highway": "service"}
{"id": "527692554", "nd_refs": ["20828194", "8482565362", "4352358501", "4352358500"], "highway": "footway"}
{"id": "527692887", "nd_refs": ["8482565361", "8482565344"], "highway": "footway"}
{"id": "528606460", "nd_refs": ["3899037438", "6876826686", "984106534", "3460538731"], "highway": "unclassified"}
{"id": "537254349", "nd_refs": ["1430709370", "1430709374"], "highway": "steps"}
{"id": "547407905", "nd_refs": ["5289340990", "10187841616", "5289340989", "10187841597", "5289340985"], "highway": "service"}
{"id": "547407907", "nd_refs": ["5289340995", "10187696153", "5289340994"], "highway": "service"}
{"id": "552820876", "nd_refs": ["5336794147", "5336794142", "5336794146", "5336794143", "5336794145", "5336794141", "9780863916"], "highway": "footway"}
{"id": "552919522", "nd_refs": ["284157791", "3923047878", "3923047249", "2179441338", "5337904034"], "highway": "motorway_link"}
{"id": "553982887", "nd_refs": ["5346799557", "5346799558", "5346799559", "5346799560", "5346799561", "5346799562", "5346799563", "10074592754", "5346799564", "5346799565", "5346799566", "5346799567", "5346799568", "5346799569", "5346799570", "5346799571", "5346799572", "10074592735", "5346799573", "11074352631", "5346799574", "10187836025", "10187836026", "10187836027", "10187836028", "10074592757", "5346799575", "5346799576", "5346799577", "994327055", "994327138", "5346799557"], "highway": "pedestrian"}
{"id": "553982891", "nd_refs": ["5274384168", "5390850521", "5274384169", "5346799698", "5346799702", "10185940033", "5387993508", "5274384168"], "highway": "pedestrian"}
{"id": "558628858", "nd_refs": ["20828196", "5387993423"], "highway": "footway"}
{"id": "558628859", "nd_refs": ["4352358545", "1614453459", "1614453439", "1614453475", "5390932037", "324400372", "1936235337", "10076581828", "10076581830", "10076581831", "10076581829", "1718571819", "1718571805", "1718571803", "10076581826", "3820378623", "1936235330", "1936235338", "1936235339", "1936235331", "1936235332", "1936235340", "1936235326", "1718571801", "10076581823", "1718571799", "4352350811", "5209181141", "1718571791", "1718571795", "4352350810", "1718571784", "666758945", "5387993424", "5387993425", "5387993426", "5387993427", "5387993428", "5387993429", "5387993430", "5387993431", "5387993432", "5387993433", "5387993434", "5387993435", "5387993436", "5387993437", "10076581832", "5387993438", "5387993439", "5387993440", "5387993451", "5387993450", "5387993441", "5387993442", "5387993443", "5387993444", "5346799698", "5346799702", "5387993445", "5387993446", "5387993447", "5387993448", "5387993449", "6901195287", "4352358545"], "highway": "pedestrian"}
{"id": "562907062", "nd_refs": ["1430709376", "10076581826", "5425695841"], "highway": "footway"}
{"id": "568416454", "nd_refs": ["669414293", "669414291", "5468613966"], "highway": "footway"}
{"id": "568416462", "nd_refs": ["6399693690", "5468613977", "5468613978", "6399693691"], "highway": "footway"}
{"id": "586152357", "nd_refs": ["5601101452", "5601106273", "5601106274", "5601106275", "5601106276", "5601106277", "5601106278", "5601106279", "5601106280", "5601106281", "5601106282", "5601106283", "5601106284", "5601106285", "5601106286", "5601106287", "5601106288", "5601106289", "5601106290", "3736931358"], "highway": "footway"}
{"id": "590914595", "nd_refs": ["5641003460", "7125451289", "6364421415"], "highway": "footway"}
{"id": "590914596", "nd_refs": ["10197152416", "6766449282", "6077631486", "5641003457", "5641003461", "5641003460"], "highway": "footway"}
{"id": "598068425", "nd_refs": ["10197020154", "5692890291", "5692890292", "10197020157"], "highway": "footway"}
{"id": "598692238", "nd_refs": ["5698226665", "2200728000"], "highway": "service"}
{"id": "598692239", "nd_refs": ["1810714497", "5698226666"], "highway": "pedestrian"}
{"id": "598692240", "nd_refs": ["5698226666", "1746593228", "1746593227", "10628342887", "7632356451", "1746593226"], "highway": "service"}
{"id": "600318850", "nd_refs": ["5708672452", "10936393449", "15405753"], "highway": "unclassified"}
{"id": "600318851", "nd_refs": ["3593631030", "6477161885"], "highway": "unclassified"}
{"id": "600318852", "nd_refs": ["26526387", "9888818908", "2045059225"], "highway": "unclassified"}
{"id": "600335440", "nd_refs": ["3736931363", "5708780901", "5708780900", "5708780899", "5708780898", "3736931362"], "highway": "footway"}
{"id": "600685024", "nd_refs": ["11017413618", "5711028992", "5711028991", "5711028994"], "highway": "footway"}
{"id": "612829269", "nd_refs": ["5800270953", "10197163425", "6936407755", "6766449271", "5800270052"], "highway": "corridor"}
{"id": "619343611", "nd_refs": ["5852861388", "5852861397", "5852861391", "5852861393", "5852861394", "5852861395"], "highway": "service"}
{"id": "620819400", "nd_refs": ["5852861395", "5865176284", "5865178396", "5865178389"], "highway": "service"}
{"id": "621342709", "nd_refs": ["5869708114", "5869708115", "5869708116"], "highway": "footway"}
{"id": "621342711", "nd_refs": ["5869708121", "9716927142", "5869708122", "5869708123"], "highway": "footway"}
{"id": "621342719", "nd_refs": ["5869708161", "5869708162", "5869708163"], "highway": "footway"}
{"id": "621342720", "nd_refs": ["5869708163", "5869708164", "5869708165"], "highway": "footway"}
{"id": "621342721", "nd_refs": ["5869708169", "9888818913", "5869708168"], "highway": "service"}
{"id": "623377507", "nd_refs": ["5865178396", "5865178397", "6062494842", "5887261146", "5887261149", "5887261150", "5887261141"], "highway": "footway"}
{"id": "623377509", "nd_refs": ["5865178400", "5887261146"], "highway": "footway"}
{"id": "623377511", "nd_refs": ["5887261150", "5887261151"], "highway": "footway"}
{"id": "623413456", "nd_refs": ["1572139764", "5887487528", "5887487529", "5887487530", "5887487531", "5887487532", "5887487533"], "highway": "footway"}
{"id": "629213370", "nd_refs": ["5940648888", "10074583495", "10188341479", "10187679281", "10187679283", "10187679282", "5940648889"], "highway": "residential"}
{"id": "629213372", "nd_refs": ["6669086805", "8568912751", "6669045399", "6669045400", "6669045401", "3736931359", "4601393681", "5940648889", "2069363597"], "highway": "residential"}
{"id": "635521277", "nd_refs": ["5994772058", "5994772049"], "highway": "construction"}
{"id": "635521278", "nd_refs": ["5994772049", "5994772050"], "highway": "construction"}
{"id": "635521279", "nd_refs": ["5994772058", "5994772052"], "highway": "construction"}
{"id": "635521280", "nd_refs": ["5994772057", "9784672411", "9784672412", "5994772053", "5994772054"], "highway": "footway"}
{"id": "635521281", "nd_refs": ["5994772055", "5994772056", "5994772059"], "highway": "footway"}
{"id": "635521282", "nd_refs": ["5994772054", "5994772055"], "highway": "steps"}
{"id": "635521283", "nd_refs": ["5994772050", "5994772051"], "highway": "construction"}
{"id": "644697407", "nd_refs": ["5852861388", "6062494839"], "highway": "service"}
{"id": "644697409", "nd_refs": ["6062494842", "6062494843"], "highway": "footway"}
{"id": "644697410", "nd_refs": ["5887261141", "6062494848"], "highway": "footway"}
{"id": "646809311", "nd_refs": ["6076004409", "6076004410", "6076004411", "6594385372"], "highway": "footway"}
{"id": "646813910", "nd_refs": ["6076031965", "10187696256"], "highway": "footway"}
{"id": "646813914", "nd_refs": ["6076031969", "10187696259"], "highway": "footway"}
{"id": "646813915", "nd_refs": ["6076031968", "9484907952"], "highway": "footway"}
{"id": "647047985", "nd_refs": ["6077631486", "6062494845"], "highway": "footway"}
{"id": "647047987", "nd_refs": ["6077631487", "6077631488"], "highway": "steps"}
{"id": "647047989", "nd_refs": ["6077631488", "6077631489", "6077631490", "6077631491"], "highway": "footway"}
{"id": "647047992", "nd_refs": ["6077631491", "6077631492"], "highway": "steps"}
{"id": "647047994", "nd_refs": ["6077631492", "6077631493"], "highway": "footway"}
{"id": "647047996", "nd_refs": ["6077631493", "6077631494"], "highway": "footway"}
{"id": "647047998", "nd_refs": ["6062494845", "6077631487"], "highway": "footway"}
{"id": "648164728", "nd_refs": ["5869708165", "5869708166", "5869708167"], "highway": "steps"}
{"id": "648164729", "nd_refs": ["5869708167", "6085578973"], "highway": "footway"}
{"id": "683259858", "nd_refs": ["6399693690", "6399693692"], "highway": "footway"}
{"id": "683259859", "nd_refs": ["6399693692", "6399693693"], "highway": "footway"}
{"id": "683259860", "nd_refs": ["6399693691", "6399693694"], "highway": "footway"}
{"id": "688598749", "nd_refs": ["6457653164", "6457653165", "8189319802", "6457653166", "6457653167", "3724300041"], "highway": "footway"}
{"id": "689578715", "nd_refs": ["6594385380", "9354668766", "6469103636"], "highway": "footway"}
{"id": "689578716", "nd_refs": ["6469103636", "6469103637"], "highway": "steps"}
{"id": "689578717", "nd_refs": ["6469103637", "6469103638"], "highway": "footway"}
{"id": "689578718", "nd_refs": ["3623073634", "6469103639"], "highway": "steps"}
{"id": "689578719", "nd_refs": ["6469103640", "6469103641"], "highway": "footway"}
{"id": "689578720", "nd_refs": ["6469103641", "6469103642"], "highway": "steps"}
{"id": "689605571", "nd_refs": ["6469355487", "6594385375", "6469355488", "6469355489", "6469355490", "6594385374", "6469355491"], "highway": "footway"}
{"id": "689605572", "nd_refs": ["6469355488", "6469355495", "6469355492"], "highway": "footway"}
{"id": "689605573", "nd_refs": ["6469355493", "6469355494", "6469355489"], "highway": "footway"}
{"id": "689605574", "nd_refs": ["6469103639", "6469355488"], "highway": "footway"}
{"id": "689605575", "nd_refs": ["6469355495", "6469355496", "6469355497", "6469355498", "6469355499"], "highway": "steps"}
{"id": "690386038", "nd_refs": ["6477161581", "6477161582", "6477161583"], "highway": "footway"}
{"id": "690386039", "nd_refs": ["6477161584", "6477161885"], "highway": "footway"}
{"id": "690386040", "nd_refs": ["6477161583", "6477161584"], "highway": "steps"}
{"id": "690386041", "nd_refs": ["6477161582", "6477161886", "6477161887", "6477161888"], "highway": "footway"}
{"id": "690386042", "nd_refs": ["6477161890", "6477161891"], "highway": "footway"}
{"id": "690386043", "nd_refs": ["6477161892", "6477161893", "6477161894", "6477161582"], "highway": "footway"}
{"id": "690386044", "nd_refs": ["6477161891", "6477161892"], "highway": "steps"}
{"id": "690386045", "nd_refs": ["6477161888", "8377066867", "6477161889"], "highway": "footway"}
{"id": "690386046", "nd_refs": ["6477161582", "6477161895", "6477161896", "6477161897", "6477161901", "6477161898", "6477161899", "6477161900", "6477161895"], "highway": "footway"}
{"id": "690386047", "nd_refs": ["6477161901", "6085578973"], "highway": "footway"}
{"id": "690386048", "nd_refs": ["6477161581", "20827955"], "highway": "footway"}
{"id": "702219825", "nd_refs": ["6594385359", "10628342900", "6581009114", "6594385358"], "highway": "service"}
{"id": "702219826", "nd_refs": ["6594385363", "6936407754", "6766449272", "6594385362"], "highway": "service"}
{"id": "702219827", "nd_refs": ["6594385365", "6936407753", "6766449274", "2623017281"], "highway": "service"}
{"id": "702219828", "nd_refs": ["6936415893", "6936415894", "6936415895", "6936415896", "6936407775", "6936415897", "6594385371", "6946456180", "6946456178", "6946456184", "6594385370", "6594385379"], "highway": "footway"}
{"id": "702219829", "nd_refs": ["6594385380", "2869677788", "6594385376"], "highway": "footway"}
{"id": "702219830", "nd_refs": ["6594385379", "6594385377", "6594385378", "6594385382"], "highway": "footway"}
{"id": "702219831", "nd_refs": ["6594385384", "6946456181", "6594385372", "6946456183", "6946457385", "6594385373", "6594385374", "6594385375", "6594385383", "6594385382", "6594385381", "6594385380"], "highway": "footway"}
{"id": "702219832", "nd_refs": ["6594415688", "6594415687", "6594385373", "6594415686", "6594415685"], "highway": "service"}
{"id": "702324044", "nd_refs": ["15407250", "9354572191", "10187841487", "10187841474", "9354572184", "1070474101", "8588632"], "highway": "secondary"}
{"id": "709535958", "nd_refs": ["5708726452", "6669189412", "6669189413", "6669189414", "6669189415", "6669189416", "6669189417", "6669189418", "6669189419", "6669189420", "8186373867", "6669189421"], "highway": "footway"}
{"id": "709535967", "nd_refs": ["6669189421", "8186373866", "6669172654", "363605544"], "highway": "footway"}
{"id": "709535981", "nd_refs": ["6669189438", "6669189509", "6669189510", "6669189511", "6669189569", "6669189512"], "highway": "footway"}
{"id": "709535997", "nd_refs": ["6669189569", "6669189570", "8186373865", "6669189421"], "highway": "footway"}
{"id": "709538968", "nd_refs": ["6669172654", "6669172655"], "highway": "footway"}
{"id": "721183959", "nd_refs": ["6595339284", "6594415689", "1810713242"], "highway": "secondary"}
{"id": "721183960", "nd_refs": ["6399693694", "6936407764", "6581009158", "6399693695"], "highway": "footway"}
{"id": "721183961", "nd_refs": ["10197152413", "6694044655", "6766449279", "6766449280", "10197152412"], "highway": "footway"}
{"id": "740889946", "nd_refs": ["5641003460", "10554083468", "6936407747", "11165923585", "6946325354", "6946325355", "6946325357", "6946325358", "6936407744", "6946325367", "10228192167", "10554083471", "6766487589"], "highway": "footway"}
{"id": "740889947", "nd_refs": ["6936407756", "6936407748", "6936407755", "6936407754", "6936407753", "6936407752", "6936407773", "6936407751", "6936407750", "6936407749"], "highway": "footway"}
{"id": "740889948", "nd_refs": ["6936407763", "6936407761", "6936407764", "6936407765", "6936407766", "6936407776", "6936407782"], "highway": "footway"}
{"id": "740889949", "nd_refs": ["6594385371", "6936407772", "6936407771", "6594385384", "6936407770", "6936407773", "6936407767", "6936407769", "6936407768", "6936407776", "6936407774", "6936407775"], "highway": "footway"}
{"id": "740889950", "nd_refs": ["6936415890", "3899037438", "6936415889"], "highway": "footway"}
{"id": "742033102", "nd_refs": ["6946325354", "6585559391", "6946325377"], "highway": "footway"}
{"id": "742033110", "nd_refs": ["6946325372", "6946325373", "6946325374", "1810714494"], "highway": "footway"}
{"id": "742033111", "nd_refs": ["6946325373", "6928892319", "6946325379"], "highway": "footway"}
{"id": "742033115", "nd_refs": ["6946325372", "8401079061", "5641003459"], "highway": "footway"}
{"id": "742033116", "nd_refs": ["6946325377", "6946325378"], "highway": "footway"}
{"id": "742033117", "nd_refs": ["6946325379", "6946325380"], "highway": "footway"}
{"id": "742033118", "nd_refs": ["6946325360", "10554083470", "6946325377"], "highway": "footway"}
{"id": "742033119", "nd_refs": ["6946325363", "10554083469", "6946325379"], "highway": "footway"}
{"id": "742034867", "nd_refs": ["6946456178", "6946456179"], "highway": "footway"}
{"id": "742034868", "nd_refs": ["6946456180", "6585559396"], "highway": "footway"}
{"id": "742034869", "nd_refs": ["6928886470", "6946456181"], "highway": "footway"}
{"id": "742034870", "nd_refs": ["6946456182", "6946456183"], "highway": "footway"}
{"id": "742034871", "nd_refs": ["6946456184", "6585559397"], "highway": "footway"}
{"id": "742034872", "nd_refs": ["6928886469", "6946457385"], "highway": "footway"}
{"id": "742034873", "nd_refs": ["6946457386", "6946457387", "6946457388"], "highway": "footway"}
{"id": "742034874", "nd_refs": ["6946457387", "6946456179"], "highway": "footway"}
{"id": "742034875", "nd_refs": ["6946457389", "6946457390", "6946457391"], "highway": "footway"}
{"id": "742034876", "nd_refs": ["6946457390", "6946456182"], "highway": "footway"}
{"id": "753455241", "nd_refs": ["15405039", "2268947005", "9920391747", "1070474087"], "highway": "secondary"}
{"id": "753455245", "nd_refs": ["3910242835", "3342114058", "8203851685", "1070474087"], "highway": "secondary"}
{"id": "762585941", "nd_refs": ["7125451286", "8401079062", "1810714490"], "highway": "footway"}
{"id": "762585942", "nd_refs": ["7125451287", "11074448133"], "highway": "footway"}
{"id": "762585943", "nd_refs": ["7125467216", "1810714488", "6694044647", "6364421415"], "highway": "pedestrian"}
{"id": "762587294", "nd_refs": ["7125440646", "7125440645"], "highway": "footway"}
{"id": "762587295", "nd_refs": ["7125440648", "7125440649"], "highway": "footway"}
{"id": "762587296", "nd_refs": ["7125440645", "7125440650"], "highway": "footway"}
{"id": "762587297", "nd_refs": ["7125440650", "7125440651"], "highway": "steps"}
{"id": "762587298", "nd_refs": ["3420655031", "7125440652", "7125440648", "7125440646"], "highway": "footway"}
{"id": "770060970", "nd_refs": ["8107810", "10187841591", "2529920941"], "highway": "motorway_link"}
{"id": "770060971", "nd_refs": ["3921674125", "10197020151", "10187841590", "8107810"], "highway": "tertiary"}
{"id": "770060972", "nd_refs": ["3921674122", "10197020152", "10187841588", "8107810"], "highway": "secondary"}
{"id": "778420267", "nd_refs": ["20828186", "7264998807"], "highway": "unclassified"}
{"id": "778420268", "nd_refs": ["7264998808", "7264998807"], "highway": "service"}
{"id": "816465846", "nd_refs": ["3921428799", "3921428795", "10187836071", "2529504304", "10187836070", "2529504311", "7625468515", "2529504313", "2179446324"], "highway": "footway"}
{"id": "816490712", "nd_refs": ["7625728524", "3593631027", "9784672410", "15405030"], "highway": "primary"}
{"id": "816501797", "nd_refs": ["6477161885", "9885532913", "26526387"], "highway": "unclassified"}
{"id": "821406897", "nd_refs": ["3921674125", "10187836053", "10197020150", "10187841589", "7669412789", "7669412788", "2529920941"], "highway": "motorway_link"}
{"id": "821406898", "nd_refs": ["26377068", "8482565343", "8482565342", "26627334"], "highway": "motorway"}
{"id": "821663802", "nd_refs": ["600645165", "600645167"], "highway": "motorway_link"}
{"id": "821663804", "nd_refs": ["15449295", "1836532453"], "highway": "motorway"}
{"id": "821663805", "nd_refs": ["7671950876", "1895566783", "1895566795"], "highway": "motorway"}
{"id": "821663806", "nd_refs": ["1836532452", "15449295"], "highway": "motorway"}
{"id": "821663807", "nd_refs": ["7671950877", "600645162"], "highway": "motorway_link"}
{"id": "821663808", "nd_refs": ["7671950878", "17395606"], "highway": "motorway"}
{"id": "821663809", "nd_refs": ["7669412787", "7669412786", "2505088826", "2505088823", "26377068"], "highway": "motorway_link"}
{"id": "826091626", "nd_refs": ["7713053806", "7713053805"], "highway": "steps"}
{"id": "826091627", "nd_refs": ["7713053805", "7713053821", "7713053807", "7713053820"], "highway": "footway"}
{"id": "826091628", "nd_refs": ["7713053808", "7713053807"], "highway": "steps"}
{"id": "826091629", "nd_refs": ["7713053820", "1572139764"], "highway": "steps"}
{"id": "826091630", "nd_refs": ["7713053809", "7713053816"], "highway": "footway"}
{"id": "826091631", "nd_refs": ["7713053810", "7713053811"], "highway": "footway"}
{"id": "826091632", "nd_refs": ["7713053816", "7713053812"], "highway": "steps"}
{"id": "826091633", "nd_refs": ["7713053811", "7713053813"], "highway": "steps"}
{"id": "826091634", "nd_refs": ["7713053813", "7713053814", "7713053812"], "highway": "footway"}
{"id": "826091635", "nd_refs": ["7713053814", "7713053815"], "highway": "steps"}
{"id": "826184865", "nd_refs": ["8965676", "9006017850", "7713934303"], "highway": "tertiary"}
{"id": "826184866", "nd_refs": ["2504574892", "2504574891", "2504574890", "2690130792", "1661846522"], "highway": "motorway_link"}
{"id": "826184867", "nd_refs": ["1661846522", "7713934305", "9006017849", "9006017848", "7713934304", "7713934303"], "highway": "motorway_link"}
{"id": "827973992", "nd_refs": ["9974836475", "10108298522", "10108298521", "10108298523", "7632356444", "10188082795", "7632356445", "10188082799", "7632356446", "7632356447", "7632356448", "10628342896", "7632356449", "10769919177", "7632356450", "7632356451", "7632356452", "7632356453", "7632356454", "7632356455", "9908592257", "9888821421", "7632356456", "9885532916", "9885558817", "9885532915", "9885532914"], "highway": "cycleway"}
{"id": "832166667", "nd_refs": ["8203851683", "8203851684", "7769404163", "7769404162", "7769404161", "7769404160", "5336793817"], "highway": "cycleway"}
{"id": "865243090", "nd_refs": ["8064715821", "2069361271", "7671950877"], "highway": "motorway_link"}
{"id": "880066814", "nd_refs": ["8186373829", "8186373869", "8186373864", "8186373871", "8186373830", "8186373831", "8186373870", "8186373875", "8186373832", "8186373833", "6669189439", "8186373874", "8186373834", "8186373872", "8186373868", "8186373867", "8186373835", "8186373866", "8186373836", "8186373865", "8186373862", "8186373863", "8186373861", "6669189509", "8186373837", "8186373838", "8186373839", "8186373840", "8186373841", "8186373842", "8186373843", "8186373844", "8186373845", "8186373846", "8186373847", "8186373848", "8186373860", "8186373829"], "highway": "pedestrian"}
{"id": "880066821", "nd_refs": ["8186373892", "5336794246", "5336794245", "5336794244", "8186373893", "8189352604", "5336794168", "8186373907", "8186373899", "9780863845", "2763588227", "8186373894", "10207286042", "8186373896", "8186373895", "10204969806", "8186373898", "8186373900", "8189352564", "8186373892"], "highway": "pedestrian"}
{"id": "880066822", "nd_refs": ["8186373901", "8186373902", "8186373903", "8186373904", "8186373905", "8186373906", "8186373907", "8186373908"], "highway": "footway"}
{"id": "882161498", "nd_refs": ["8203851669", "1070474093"], "highway": "footway"}
{"id": "882161499", "nd_refs": ["1070474093", "8203851670", "8203851671", "8203851672", "8203851673", "8203851674", "9780863940", "8203851675", "8203851676", "8203851677", "8203851678", "9780863938", "8203851679", "8203851680"], "highway": "cycleway"}
{"id": "882161500", "nd_refs": ["8203851680", "9885509267", "9885509256", "9885509266"], "highway": "cycleway"}
{"id": "882161501", "nd_refs": ["1570660757", "8186373882", "5336794189", "5336794188", "25843325", "5336794187", "5336794186", "5336794185", "5336794138", "5336794184", "3724300026", "5336794183", "5336794182", "5336794181", "3724300027", "5336794180", "5336794179", "5336794128", "5336794178", "33152349", "5336794177", "3724300028", "5336794176", "5336794175", "25843327"], "highway": "footway"}
{"id": "882161502", "nd_refs": ["25843327", "5336794123", "5336794124"], "highway": "footway"}
{"id": "882161504", "nd_refs": ["5336794131", "5336794159", "3724300029", "5336794158", "25843322", "5336794157", "5336794156", "5336794155"], "highway": "cycleway"}
{"id": "882161505", "nd_refs": ["5336794130", "5336794129", "5336794131"], "highway": "footway"}
{"id": "882161506", "nd_refs": ["5029931540", "8203851683"], "highway": "cycleway"}
{"id": "901816995", "nd_refs": ["3593631026", "26526386", "3593631030"], "highway": "unclassified"}
{"id": "901816996", "nd_refs": ["15405030", "3593631032", "8377066868"], "highway": "primary"}
{"id": "912291159", "nd_refs": ["1839978197", "7713053810", "8474815115"], "highway": "cycleway"}
{"id": "912291160", "nd_refs": ["8474815115", "8474815114"], "highway": "cycleway"}
{"id": "913143639", "nd_refs": ["20828194", "5129743445", "8482565348", "8482565349", "8482565350", "8482565351", "8482565352", "10074592710", "10074592711", "10074592712", "10074592713", "10074592714", "8482565353", "8482565344", "10074592709", "8482565345", "8482565346", "8482565347", "20828194"], "highway": "footway"}
{"id": "923074889", "nd_refs": ["8568831282", "2069363596"], "highway": "service"}
{"id": "923074890", "nd_refs": ["5940648888", "8568831282"], "highway": "service"}
{"id": "923076648", "nd_refs": ["8568912754", "8568912755"], "highway": "footway"}
{"id": "923076649", "nd_refs": ["1430709351", "8568912751", "8568912756"], "highway": "footway"}
{"id": "923076650", "nd_refs": ["8568912756", "8568912757", "8568912767", "8568912758", "8568912759", "8568912760", "8568912761", "8568912762", "8568912763", "8568912764", "8568912765", "8568912766", "8568912756"], "highway": "footway"}
{"id": "923076651", "nd_refs": ["8568912748", "8568912752", "8568912767"], "highway": "footway"}
{"id": "943419355", "nd_refs": ["10074592759", "8735304012", "8735304013"], "highway": "steps"}
{"id": "973020775", "nd_refs": ["8107775", "9006017824", "9006017825", "9006017827", "9006017828", "9006017826", "9006017829", "9006017830", "9006017831", "9006017832", "9006017844"], "highway": "cycleway"}
{"id": "973020776", "nd_refs": ["1570660660", "403820490"], "highway": "cycleway"}
{"id": "973020777", "nd_refs": ["403820490", "9006017852", "9006017845"], "highway": "cycleway"}
{"id": "973020778", "nd_refs": ["9006017846", "1425901342", "9006017847"], "highway": "footway"}
{"id": "973020779", "nd_refs": ["10187696090", "4206622898", "10187696092", "10187696091", "9006017846"], "highway": "footway"}
{"id": "973020780", "nd_refs": ["9006017845", "9006017856"], "highway": "cycleway"}
{"id": "973020781", "nd_refs": ["9006017856", "9006017864", "403820498", "1424924874", "9006017857", "9006017861"], "highway": "cycleway"}
{"id": "1013938589", "nd_refs": ["10187841468", "9354572184", "10187841469"], "highway": "footway"}
{"id": "1013938590", "nd_refs": ["9354572197", "10187841490", "9354572202", "9354572183", "9354572196", "9354572195"], "highway": "footway"}
{"id": "1013938591", "nd_refs": ["9354572199", "10187841567", "10197152405", "9354572207", "10187841568", "9354572206", "1843379970", "9354572204", "10187841495", "9354572203", "9354572198"], "highway": "footway"}
{"id": "1013938592", "nd_refs": ["6936415894", "10197152404", "9354572208", "9354572209", "6594385379"], "highway": "footway"}
{"id": "1013938593", "nd_refs": ["9354572211", "10187841498", "9354572201", "10187841496", "9354572200", "10187841497", "9607758648", "10187841484", "10187841485", "5116645627", "9354572194", "9354572193", "9607758651", "9607758649", "9607758650", "9354572192"], "highway": "footway"}
{"id": "1013938594", "nd_refs": ["10187841494", "9354572190", "10187841493"], "highway": "footway"}
{"id": "1013938595", "nd_refs": ["10187841491", "9354572191", "10187841492"], "highway": "footway"}
{"id": "1013938597", "nd_refs": ["10197152406", "9354572187", "10197152352", "10197152407"], "highway": "footway"}
{"id": "1013938598", "nd_refs": ["9354572210", "9354572186", "9354572209"], "highway": "footway"}
{"id": "1013938599", "nd_refs": ["6594385379", "11101714941", "6936415893"], "highway": "footway"}
{"id": "1013938600", "nd_refs": ["9354572214", "9354572185", "6594385379"], "highway": "footway"}
{"id": "1013938601", "nd_refs": ["9354572215", "9354572210", "9354572213", "9354572205", "9354572212", "9354572211"], "highway": "footway"}
{"id": "1026601995", "nd_refs": ["5336794137", "5336794136", "5336794135"], "highway": "footway"}
{"id": "1028800962", "nd_refs": ["4303762725", "9484866990"], "highway": "footway"}
{"id": "1028800963", "nd_refs": ["9484866990", "5674498138"], "highway": "steps"}
{"id": "1028800964", "nd_refs": ["5674498138", "1431619032"], "highway": "footway"}
{"id": "1028804824", "nd_refs": ["9484889183", "9484889179"], "highway": "footway"}
{"id": "1028804827", "nd_refs": ["9484889178", "9484889183"], "highway": "steps"}
{"id": "1028805123", "nd_refs": ["9484907952", "6076031969"], "highway": "steps"}
{"id": "1049304543", "nd_refs": ["9885532914", "9888821422", "9643106737", "9643106731", "9885532913", "9643106732", "9643106733", "9885532912", "9643106734", "9643106736"], "highway": "cycleway"}
{"id": "1049304544", "nd_refs": ["9643106736", "3899037431", "9885509268", "9885509266"], "highway": "cycleway"}
{"id": "1057487571", "nd_refs": ["3762103298", "9936426573", "9716927137", "9716927138", "9716927139", "9716927140", "9716927141", "9716927142", "9716927143", "26526387"], "highway": "construction"}
{"id": "1058237358", "nd_refs": ["9723964649", "10187836093", "9723964650", "10187836092", "9723964651", "9723964652", "10187836091", "10187836090", "9723964653", "9723964647"], "highway": "footway"}
{"id": "1058237359", "nd_refs": ["8482565361", "9723964654", "9723964648"], "highway": "footway"}
{"id": "1058237360", "nd_refs": ["9723964656", "10187841481", "9723964655", "9723964649", "10187836105", "9723964647", "10187841606", "9723964648"], "highway": "footway"}
{"id": "1058237361", "nd_refs": ["9354572196", "9723964658"], "highway": "footway"}
{"id": "1058237362", "nd_refs": ["9723964656", "9723964659", "9723964660", "9723964658"], "highway": "footway"}
{"id": "1065037645", "nd_refs": ["9780863935", "10206705297", "9780863852", "9780863956", "9780863860", "9780863957", "9780863850", "2514739928"], "highway": "footway"}
{"id": "1065037646", "nd_refs": ["9780863880", "10207318746", "10207318747", "9780863851", "10206705299"], "highway": "footway"}
{"id": "1065037647", "nd_refs": ["9780863856", "9780863927", "9780863855", "9780863926", "9780863924", "9780863854"], "highway": "footway"}
{"id": "1065037648", "nd_refs": ["10206705295", "9780863881"], "highway": "footway"}
{"id": "1065037649", "nd_refs": ["9780863880", "10206705292", "9780863857", "9780863878"], "highway": "footway"}
{"id": "1065037651", "nd_refs": ["9780863871", "9780863872"], "highway": "steps"}
{"id": "1065037652", "nd_refs": ["9780863872", "9780863873"], "highway": "steps"}
{"id": "1065037653", "nd_refs": ["9780863872", "9780863874"], "highway": "steps"}
{"id": "1065037654", "nd_refs": ["9780863871", "9780863875"], "highway": "steps"}
{"id": "1065037655", "nd_refs": ["9780863875", "9780863876"], "highway": "steps"}
{"id": "1065037656", "nd_refs": ["9780863875", "9780863877"], "highway": "steps"}
{"id": "1065037657", "nd_refs": ["9780863880", "9780863889", "9780863871"], "highway": "footway"}
{"id": "1065037659", "nd_refs": ["9780863892", "9780863874"], "highway": "footway"}
{"id": "1065037660", "nd_refs": ["9780863893", "9780863876"], "highway": "footway"}
{"id": "1065037661", "nd_refs": ["9780863873", "9780863894"], "highway": "footway"}
{"id": "1065037662", "nd_refs": ["9780863877", "9780863895"], "highway": "footway"}
{"id": "1065037663", "nd_refs": ["9780863891", "9780863894", "9780863895", "9780863896"], "highway": "footway"}
{"id": "1065037664", "nd_refs": ["9780863897", "9780863892", "9780863893", "9780863898"], "highway": "footway"}
{"id": "1065037665", "nd_refs": ["9780863888", "9780863883", "9780863900", "9780863899"], "highway": "footway"}
{"id": "1065037666", "nd_refs": ["9780863888", "9780863884", "9780863902", "9780863901"], "highway": "footway"}
{"id": "1065037667", "nd_refs": ["9780863904", "9780863902"], "highway": "footway"}
{"id": "1065037672", "nd_refs": ["9780863854", "9780863925", "9780863910", "9780863908"], "highway": "footway"}
{"id": "1065037673", "nd_refs": ["9780863907", "9780863908"], "highway": "footway"}
{"id": "1065037674", "nd_refs": ["9780863909", "9780863910"], "highway": "footway"}
{"id": "1065037676", "nd_refs": ["9780863916", "10207286041", "9780863912", "9780863853"], "highway": "footway"}
{"id": "1065037677", "nd_refs": ["9780863923", "10207286050", "3724300039"], "highway": "footway"}
{"id": "1065037679", "nd_refs": ["10207286041", "9780863923"], "highway": "steps"}
{"id": "1065037681", "nd_refs": ["9780863871", "9780863899", "9780863890", "9780863878", "9780863881"], "highway": "footway"}
{"id": "1065037682", "nd_refs": ["9780863848", "9780863879"], "highway": "steps"}
{"id": "1065037683", "nd_refs": ["10206705299", "9780863935"], "highway": "steps"}
{"id": "1065037684", "nd_refs": ["5029931540", "9780863952", "9780863941", "5029931543", "9780863951", "5029931542", "9780863950", "9780863949", "5029931541", "9780863948", "3724300031"], "highway": "footway"}
{"id": "1065037685", "nd_refs": ["9780863937", "2514739928"], "highway": "steps"}
{"id": "1065037686", "nd_refs": ["9780863937", "9780863939", "9780863938"], "highway": "footway"}
{"id": "1065037687", "nd_refs": ["9780863939", "10228192166"], "highway": "footway"}
{"id": "1065037688", "nd_refs": ["9780863943", "9780863850"], "highway": "steps"}
{"id": "1065037689", "nd_refs": ["9780863941", "9780863943"], "highway": "footway"}
{"id": "1065037690", "nd_refs": ["5336794148", "8186373896", "3342114063"], "highway": "footway"}
{"id": "1065037691", "nd_refs": ["3724300035", "9780863953", "9780863954", "9780863955", "9780863957"], "highway": "footway"}
{"id": "1065037692", "nd_refs": ["9780863908", "9780863913", "9780863853"], "highway": "footway"}
{"id": "1065433978", "nd_refs": ["9784672410", "1562157286"], "highway": "pedestrian"}
{"id": "1065433979", "nd_refs": ["1562157286", "5994772057"], "highway": "steps"}
{"id": "1065433980", "nd_refs": ["5994772051", "15405030", "9784704069", "5994772057"], "highway": "construction"}
{"id": "1065433981", "nd_refs": ["9784672413", "9784704100", "5994772057"], "highway": "footway"}
{"id": "1065433983", "nd_refs": ["9784704020", "9784672416", "9784704021", "9784704024", "9784704022"], "highway": "footway"}
{"id": "1065433984", "nd_refs": ["3593631029", "9784704023", "1562157288"], "highway": "footway"}
{"id": "1065433985", "nd_refs": ["1562157288", "9784704027", "9784704022"], "highway": "steps"}
{"id": "1065433986", "nd_refs": ["9784704020", "9784704025", "9784704026", "9784672413"], "highway": "footway"}
{"id": "1065433987", "nd_refs": ["9784704056", "10986175015", "9784704028", "9784672413"], "highway": "footway"}
{"id": "1065433988", "nd_refs": ["9784704098", "9784704060", "9784704030"], "highway": "footway"}
{"id": "1065433989", "nd_refs": ["9784704047", "9784704090", "9784704033", "9784704032", "9784704030"], "highway": "footway"}
{"id": "1065433991", "nd_refs": ["9784704020", "9784704017", "9784704043", "9784704044"], "highway": "footway"}
{"id": "1065433992", "nd_refs": ["9784704045", "9784704029", "9784704021"], "highway": "footway"}
{"id": "1065433993", "nd_refs": ["9784704054", "9784704085"], "highway": "steps"}
{"id": "1065433994", "nd_refs": ["10986175017", "9784704049"], "highway": "steps"}
{"id": "1065433995", "nd_refs": ["9784704086", "9784704055"], "highway": "steps"}
{"id": "1065433996", "nd_refs": ["9784704050", "10986175016", "9784704048"], "highway": "footway"}
{"id": "1065433997", "nd_refs": ["10986175016", "9784704051", "9784704052"], "highway": "footway"}
{"id": "1065433998", "nd_refs": ["9784704056", "9784704038", "9784704042"], "highway": "footway"}
{"id": "1065433999", "nd_refs": ["10986175014", "9784704057"], "highway": "steps"}
{"id": "1065434001", "nd_refs": ["9784704058", "9784704060"], "highway": "footway"}
{"id": "1065434007", "nd_refs": ["9784704071", "9784704039", "9784704042"], "highway": "footway"}
{"id": "1065434008", "nd_refs": ["10986175018", "9784704073"], "highway": "steps"}
{"id": "1065434009", "nd_refs": ["9784704075", "9784704083"], "highway": "steps"}
{"id": "1065434010", "nd_refs": ["9784704084", "9784704076"], "highway": "steps"}
{"id": "1065434011", "nd_refs": ["9784704077", "9784704078", "9784704079", "9784704074", "9784704073"], "highway": "footway"}
{"id": "1065434012", "nd_refs": ["9784704078", "7125440642", "9784704080"], "highway": "footway"}
{"id": "1065434013", "nd_refs": ["9784704031", "10986175011", "9784704056"], "highway": "footway"}
{"id": "1065434014", "nd_refs": ["9784704031", "9784704047"], "highway": "footway"}
{"id": "1065434015", "nd_refs": ["9784704087", "9784704088", "9784704056"], "highway": "footway"}
{"id": "1065434016", "nd_refs": ["9784704047", "9784704089"], "highway": "footway"}
{"id": "1065434017", "nd_refs": ["9784704090", "9784704072"], "highway": "footway"}
{"id": "1065434018", "nd_refs": ["9784704072", "10986175015"], "highway": "footway"}
{"id": "1065434019", "nd_refs": ["9784704091", "9784704045"], "highway": "steps"}
{"id": "1065434020", "nd_refs": ["7125440651", "9784704091"], "highway": "footway"}
{"id": "1065434021", "nd_refs": ["9784704092", "9784704045"], "highway": "steps"}
{"id": "1065434022", "nd_refs": ["5995287627", "5104321435"], "highway": "footway"}
{"id": "1065434023", "nd_refs": ["5995287627", "7125440644", "9784704093", "9784704095", "7125440645"], "highway": "footway"}
{"id": "1065434024", "nd_refs": ["7125440646", "9784704092"], "highway": "footway"}
{"id": "1065434025", "nd_refs": ["9784704057", "9784704060"], "highway": "footway"}
{"id": "1065434026", "nd_refs": ["9784704098", "10986175013"], "highway": "steps"}
{"id": "1065434027", "nd_refs": ["9784704030", "9784704100"], "highway": "footway"}
{"id": "1065798717", "nd_refs": ["3623073636", "6469103638", "3623073634"], "highway": "footway"}
{"id": "1065798718", "nd_refs": ["3623073636", "2768731146"], "highway": "footway"}
{"id": "1065798719", "nd_refs": ["9787522941", "9789296201", "9787522942", "3623073636"], "highway": "footway"}
{"id": "1065798737", "nd_refs": ["9354572215", "9354572214"], "highway": "footway"}
{"id": "1065798738", "nd_refs": ["9787522986", "9354572215"], "highway": "steps"}
{"id": "1078267321", "nd_refs": ["9885509256", "9885509257", "9885509265", "9885509258", "7125440650"], "highway": "footway"}
{"id": "1078267322", "nd_refs": ["9885509259", "9885509260", "9885509261", "9885509262", "9885509263"], "highway": "footway"}
{"id": "1078267323", "nd_refs": ["9885509260", "3899037405", "9885509265"], "highway": "footway"}
{"id": "1078267324", "nd_refs": ["9885509270", "9885509269", "9885509268"], "highway": "cycleway"}
{"id": "1078267325", "nd_refs": ["3899037416", "3899037444", "3899037431", "9885509264", "3899037405", "9885509270"], "highway": "unclassified"}
{"id": "1078698536", "nd_refs": ["9888821417", "9888818912", "9888818913", "9888818908"], "highway": "footway"}
{"id": "1078698537", "nd_refs": ["9888818914", "9888816855", "3593631035", "9888818915"], "highway": "cycleway"}
{"id": "1078698538", "nd_refs": ["10197163418", "9888818909", "9888818915"], "highway": "footway"}
{"id": "1078698539", "nd_refs": ["9888818916", "9888821422", "9888821423", "9888821417"], "highway": "footway"}
{"id": "1078698540", "nd_refs": ["9888818915", "9888818910", "9888818911", "9888821417"], "highway": "cycleway"}
{"id": "1078698541", "nd_refs": ["9888821418", "9888821421", "9888821420", "9888821419"], "highway": "footway"}
{"id": "1078698542", "nd_refs": ["9888818916", "9888821424", "9888821425", "9888821419"], "highway": "footway"}
{"id": "1078698543", "nd_refs": ["9888821418", "9888821426"], "highway": "footway"}
{"id": "1078699623", "nd_refs": ["9888816853", "9888816854", "9888816855", "9885532915"], "highway": "cycleway"}
{"id": "1081041001", "nd_refs": ["9888818914", "9888821426", "9908592256"], "highway": "cycleway"}
{"id": "1081041002", "nd_refs": ["9908592256", "9908592257"], "highway": "cycleway"}
{"id": "1081041003", "nd_refs": ["9908592256", "9908592262", "9908592258"], "highway": "footway"}
{"id": "1081041004", "nd_refs": ["9888821425", "9908592260", "9908592261", "9908592259"], "highway": "footway"}
{"id": "1082454823", "nd_refs": ["9920391743", "9920391748", "9920391744", "9920391745", "9920391746", "9920391747"], "highway": "secondary"}
{"id": "1082454824", "nd_refs": ["1070474087", "1070474100", "9920391741", "9920391738", "9920391742", "9920391743"], "highway": "secondary"}
{"id": "1085115469", "nd_refs": ["2030907798", "9942803987"], "highway": "footway"}
{"id": "1085115470", "nd_refs": ["9942803987", "9942803988"], "highway": "footway"}
{"id": "1087597682", "nd_refs": ["5337904040", "9979034287", "5336794147"], "highway": "footway"}
{"id": "1089367431", "nd_refs": ["9979034282", "9979034281", "9979034280", "9979034279", "9979034278", "10207286051", "5336794145"], "highway": "footway"}
{"id": "1089367432", "nd_refs": ["5110505993", "11145818506", "11145818507", "11145818508", "11145818509", "9979034286", "9979034285", "9979034284", "9979034283", "5336794146"], "highway": "footway"}
{"id": "1089367433", "nd_refs": ["9780863916", "5336794144", "5336794148", "5336794147"], "highway": "footway"}
{"id": "1090499565", "nd_refs": ["10187696026", "6337568193", "9988363780"], "highway": "footway"}
{"id": "1097892515", "nd_refs": ["15449302", "10245932146", "5147327948", "183991315", "6076031965", "9484889180", "15407248"], "highway": "tertiary"}
{"id": "1100793856", "nd_refs": ["8568831282", "10074583497"], "highway": "service"}
{"id": "1100793860", "nd_refs": ["5346799568", "10074592660", "8735304011", "10074592661", "10074592662"], "highway": "unclassified"}
{"id": "1100793862", "nd_refs": ["2071355947", "10074592669", "10074592670", "10074592671", "10074592672"], "highway": "footway"}
{"id": "1100793863", "nd_refs": ["10074592672", "10074592673", "10074592674", "10074592675", "10074592676", "10074592677", "10074592678", "10074592679"], "highway": "footway"}
{"id": "1100793864", "nd_refs": ["10074592679", "10074592680", "10187836043", "10074592681", "10187836044", "10074592682", "10074592683", "10187836045", "10074592684", "10187836046", "10074592685", "10074592686", "10187836047", "10074592687", "10187836048", "10074592688", "10074592690"], "highway": "footway"}
{"id": "1100793866", "nd_refs": ["10074592701", "10074592702", "10074592703", "10187836061", "10074592704", "10187836062", "10074592705", "10187836073", "10074592706", "10187836063", "10074592707", "10187836085", "10074592708"], "highway": "service"}
{"id": "1100793868", "nd_refs": ["5346799568", "10074592716"], "highway": "service"}
{"id": "1100793869", "nd_refs": ["10074592735", "10074592736", "10074592737"], "highway": "steps"}
{"id": "1100793870", "nd_refs": ["10074592735", "11074352630", "10074592757"], "highway": "footway"}
{"id": "1100793871", "nd_refs": ["10074592760", "8735304011", "10074592759"], "highway": "footway"}
{"id": "1100793872", "nd_refs": ["10074592662", "10074592770", "10074592769", "10074592768", "10074592771", "10074592765", "10074592761", "10074592762"], "highway": "unclassified"}
{"id": "1100793873", "nd_refs": ["10074592764", "10074592766", "10074592767", "10074592765"], "highway": "service"}
{"id": "1100793874", "nd_refs": ["10074592763", "10074592764"], "highway": "service"}
{"id": "1102756319", "nd_refs": ["15405044", "5129712047", "10091222027"], "highway": "unclassified"}
{"id": "1102756320", "nd_refs": ["10091222028", "9885509270"], "highway": "unclassified"}
{"id": "1105686296", "nd_refs": ["26526387", "15405036"], "highway": "secondary"}
{"id": "1105686297", "nd_refs": ["20827844", "9888821423", "3593631036", "2045059233", "5869708162", "5869708169", "26526387"], "highway": "secondary"}
{"id": "1113278948", "nd_refs": ["9988363765", "3736931355"], "highway": "footway"}
{"id": "1113278953", "nd_refs": ["1430709351", "9988363763", "9988363764", "9988363765", "10187679304", "9988363766", "9988363779", "10185379726", "9988363767", "9988363777", "9988363768", "1839978225", "10185377176"], "highway": "footway"}
{"id": "1113278957", "nd_refs": ["9988363767", "3736931362"], "highway": "footway"}
{"id": "1113541287", "nd_refs": ["8568912749", "3736931353"], "highway": "footway"}
{"id": "1113541293", "nd_refs": ["5940648888", "2069363596"], "highway": "residential"}
{"id": "1113541294", "nd_refs": ["9988363766", "3736931361"], "highway": "footway"}
{"id": "1113541295", "nd_refs": ["10187679302", "663380264", "10187679303"], "highway": "footway"}
{"id": "1113541296", "nd_refs": ["10187679302", "10187679304"], "highway": "footway"}
{"id": "1113541297", "nd_refs": ["10187679303", "10187679305"], "highway": "footway"}
{"id": "1113541298", "nd_refs": ["10187679306", "10187679305", "10187679307", "10187679308", "10187679309", "10187679310", "10187679311", "10187679312", "10187679313", "10187679314", "10187696043", "10187679315", "10187679316", "10187696017", "10187696018", "10187696019", "10187696020", "10187696021", "10187696022", "10187696023", "10187696024", "10187696025", "10187679306"], "highway": "footway"}
{"id": "1113541299", "nd_refs": ["9988363779", "10187696026"], "highway": "footway"}
{"id": "1113541300", "nd_refs": ["9988363780", "10187696021"], "highway": "footway"}
{"id": "1113541303", "nd_refs": ["10187696037", "10187696065", "10187696038"], "highway": "footway"}
{"id": "1113541304", "nd_refs": ["10187696039", "10187696066", "10187696040"], "highway": "footway"}
{"id": "1113541305", "nd_refs": ["10187696041", "10187696063", "10187696042"], "highway": "footway"}
{"id": "1113541306", "nd_refs": ["10187696040", "10187696043"], "highway": "footway"}
{"id": "1113541307", "nd_refs": ["10187696056", "10187696055", "10187696054", "10187696053", "10187696052", "10187696051", "10187696060", "10187696050", "10187696049", "10187696044", "10187696045", "10187696061", "10187696046", "10187696047", "10187696048"], "highway": "footway"}
{"id": "1113541308", "nd_refs": ["10187696056", "10187696058", "10187696059", "10187696057"], "highway": "footway"}
{"id": "1113541309", "nd_refs": ["5711028995", "10187696057"], "highway": "footway"}
{"id": "1113541310", "nd_refs": ["10187696038", "10187696061", "10187696039"], "highway": "footway"}
{"id": "1113541311", "nd_refs": ["10187696041", "10187679315"], "highway": "footway"}
{"id": "1113541315", "nd_refs": ["10187696048", "10187696071"], "highway": "footway"}
{"id": "1113541316", "nd_refs": ["10187696071", "10187696072", "10187696073", "10188047640", "10187696074", "10187696075", "10187696076", "10187696213", "10187696077", "10187696078", "10187696079", "10187696080", "10187696216", "10187696081", "10187696082"], "highway": "footway"}
{"id": "1113541317", "nd_refs": ["7713934303", "1430709355"], "highway": "tertiary"}
{"id": "1113541318", "nd_refs": ["1430709339", "4206622898"], "highway": "footway"}
{"id": "1113541319", "nd_refs": ["11145818510", "11145818511", "10187696137", "10187696136", "10187696135", "10187696134", "10187696133", "10187696132", "10187696131", "10187696130", "10187696129", "10187696128", "10187696127", "10187696126", "10187696125", "10187696091"], "highway": "footway"}
{"id": "1113541320", "nd_refs": ["10187696090", "9006017855", "10187696093"], "highway": "footway"}
{"id": "1113541321", "nd_refs": ["10187696094", "9006017850", "10187696095"], "highway": "footway"}
{"id": "1113541322", "nd_refs": ["10187696096", "9006017851", "9006017852", "10187696097"], "highway": "footway"}
{"id": "1113541323", "nd_refs": ["10187696141", "10187696154", "10187696098", "10187696099", "10187696100", "10187696152", "10187696163", "10187696151", "10187696164", "10187696150", "10187696148", "10187696147", "10188047661", "10187696146", "10187696144", "10188047646", "10187696143", "10187696153", "10187696142", "10187696141"], "highway": "footway"}
{"id": "1113541324", "nd_refs": ["9006017847", "10187696098"], "highway": "footway"}
{"id": "1113541325", "nd_refs": ["10187696097", "10187696099"], "highway": "footway"}
{"id": "1113541326", "nd_refs": ["10187696093", "10187696101", "10187696094"], "highway": "footway"}
{"id": "1113541327", "nd_refs": ["10187696102", "10187696101"], "highway": "footway"}
{"id": "1113541328", "nd_refs": ["10187696102", "9006017848", "10187696103"], "highway": "footway"}
{"id": "1113541329", "nd_refs": ["10187696103", "10187696104", "10187696105", "10187696109", "10187696106", "10187696107", "10187696108", "10187841578", "8735304013", "10074592690"], "highway": "footway"}
{"id": "1113541330", "nd_refs": ["10187696110", "10187696111", "10187696112", "10187696113", "10187696114", "10187696115", "10187696116", "10187696117", "10187696118", "10187696119", "10187696120", "10187696121", "10187696122", "10187696110"], "highway": "footway"}
{"id": "1113541331", "nd_refs": ["10187696095", "10187696111"], "highway": "footway"}
{"id": "1113541332", "nd_refs": ["10187696096", "10187696112"], "highway": "footway"}
{"id": "1113541333", "nd_refs": ["10187696139", "10187696137"], "highway": "footway"}
{"id": "1113541334", "nd_refs": ["10187696092", "598916870"], "highway": "footway"}
{"id": "1113541335", "nd_refs": ["10187696155", "9006017864", "10187696156", "10187696157"], "highway": "footway"}
{"id": "1113541336", "nd_refs": ["10187696158", "9006017859", "9006017860", "10187696159"], "highway": "footway"}
{"id": "1113541337", "nd_refs": ["10187696151", "10187696155"], "highway": "footway"}
{"id": "1113541338", "nd_refs": ["10187696158", "10187696151"], "highway": "footway"}
{"id": "1113541339", "nd_refs": ["10187696257", "10187696169", "10187696170", "10187696171", "10187696172", "10187696258", "10187696259", "10187696165", "10187696166", "10187696167", "10187696254", "10187696168", "10187696255", "10187696257"], "highway": "footway"}
{"id": "1113541340", "nd_refs": ["10187696159", "10187696165"], "highway": "footway"}
{"id": "1113541342", "nd_refs": ["10187696128", "10187696210"], "highway": "footway"}
{"id": "1113541343", "nd_refs": ["10187696210", "10187696212", "10187696211"], "highway": "footway"}
{"id": "1113541344", "nd_refs": ["10187696211", "10187696213"], "highway": "footway"}
{"id": "1113541345", "nd_refs": ["10187696214", "10187696216", "10187696215", "10187696089"], "highway": "service"}
{"id": "1113541348", "nd_refs": ["10187696256", "10187696255", "6076031968"], "highway": "footway"}
{"id": "1113541349", "nd_refs": ["9484889179", "10187696257"], "highway": "footway"}
{"id": "1113541350", "nd_refs": ["9484889178", "10187696258"], "highway": "footway"}
{"id": "1113541351", "nd_refs": ["10187696157", "10187696113"], "highway": "footway"}
{"id": "1113541352", "nd_refs": ["10187696260", "9006017862", "9006017863", "10187696261"], "highway": "footway"}
{"id": "1113541353", "nd_refs": ["10187696260", "10187696113"], "highway": "footway"}
{"id": "1113541354", "nd_refs": ["10187696262", "10187696263", "10187696261"], "highway": "footway"}
{"id": "1113541355", "nd_refs": ["10187696262", "9006017858", "9006017857", "10187696264"], "highway": "footway"}
{"id": "1113541356", "nd_refs": ["10187696264", "10187696166"], "highway": "footway"}
{"id": "1113559376", "nd_refs": ["10187836055", "10187841589", "10187836056", "10187841590", "10187836057"], "highway": "footway"}
{"id": "1113559377", "nd_refs": ["10187836056", "10187841591", "10187836058"], "highway": "footway"}
{"id": "1113559378", "nd_refs": ["10187836059", "10187841588", "10187836060"], "highway": "footway"}
{"id": "1113559379", "nd_refs": ["10187836077", "10187836085", "10187836078"], "highway": "footway"}
{"id": "1113559380", "nd_refs": ["10187836079", "10187836086", "10187836087", "10187836080"], "highway": "footway"}
{"id": "1113559381", "nd_refs": ["10187836081", "10187836084", "10187836083", "10187836082"], "highway": "footway"}
{"id": "1113559382", "nd_refs": ["10187836079", "3921428799", "10187836078"], "highway": "footway"}
{"id": "1113559383", "nd_refs": ["10187836077", "8482565361"], "highway": "footway"}
{"id": "1113559384", "nd_refs": ["10187836091", "10187836082"], "highway": "footway"}
{"id": "1113559387", "nd_refs": ["10187841510", "10187841547", "10187836114", "10187836115", "10187836116", "10187841423", "10187841417", "10187841418", "10187841419", "10187841420", "10187841421", "10187841479", "10187841422", "10187841480", "10187841499"], "highway": "footway"}
{"id": "1113559389", "nd_refs": ["9354572183", "10187841468"], "highway": "footway"}
{"id": "1113559390", "nd_refs": ["10187841469", "10187841496"], "highway": "footway"}
{"id": "1113559391", "nd_refs": ["10187841470", "10187841472", "10187841473", "10187841471"], "highway": "footway"}
{"id": "1113559392", "nd_refs": ["10187841471", "9354572200"], "highway": "footway"}
{"id": "1113559393", "nd_refs": ["10187841475", "10187841477", "10187841478", "10187841476"], "highway": "footway"}
{"id": "1113559394", "nd_refs": ["10187841475", "9723964655"], "highway": "footway"}
{"id": "1113559395", "nd_refs": ["10187841476", "10187841479"], "highway": "footway"}
{"id": "1113559396", "nd_refs": ["10187841481", "10187841482"], "highway": "footway"}
{"id": "1113559397", "nd_refs": ["10187841470", "10187841422"], "highway": "footway"}
{"id": "1113559398", "nd_refs": ["10187841489", "9354572189", "10187841488"], "highway": "footway"}
{"id": "1113559399", "nd_refs": ["9354572203", "10187841489"], "highway": "footway"}
{"id": "1113559400", "nd_refs": ["10187841488", "10187841490"], "highway": "footway"}
{"id": "1113559401", "nd_refs": ["10187841492", "9354572201"], "highway": "footway"}
{"id": "1113559402", "nd_refs": ["9354572211", "10187841494"], "highway": "footway"}
{"id": "1113559403", "nd_refs": ["10187841493", "9354572204"], "highway": "footway"}
{"id": "1113559404", "nd_refs": ["9354572202", "10187841491"], "highway": "footway"}
{"id": "1113559428", "nd_refs": ["9354572199", "10187841570", "10187841569"], "highway": "footway"}
{"id": "1113559429", "nd_refs": ["10187841569", "10187841571", "10187841572", "10187841573", "10187841574", "6936415888"], "highway": "footway"}
{"id": "1113559430", "nd_refs": ["10187841575", "3921674121", "10187841576"], "highway": "footway"}
{"id": "1113559431", "nd_refs": ["10187841575", "10187696119"], "highway": "footway"}
{"id": "1113559432", "nd_refs": ["10187841576", "10187841577", "10187836060"], "highway": "footway"}
{"id": "1113559433", "nd_refs": ["10187836057", "10187841577"], "highway": "footway"}
{"id": "1113559434", "nd_refs": ["10187836055", "10187841578"], "highway": "footway"}
{"id": "1113559435", "nd_refs": ["10187841603", "10187841602", "10187841616", "10187841601", "10187841600", "10187841579", "10187841607", "10187841580", "10187841581", "10187841582", "10187836059"], "highway": "footway"}
{"id": "1113559436", "nd_refs": ["11074352630", "11074352631", "10187841583", "10187841584", "10187841585", "10187841586", "10187841599", "10187841587", "10187841592", "10187841593", "10187841597", "10187841594", "10187841595", "8482565361"], "highway": "footway"}
{"id": "1113559437", "nd_refs": ["10187836058", "10187841585"], "highway": "footway"}
{"id": "1113559438", "nd_refs": ["10187841598", "10187841587"], "highway": "footway"}
{"id": "1113559439", "nd_refs": ["10074592757", "10187841598"], "highway": "steps"}
{"id": "1113559440", "nd_refs": ["10074592737", "10074592738"], "highway": "footway"}
{"id": "1113559441", "nd_refs": ["10187841603", "10187841605", "10187841604"], "highway": "footway"}
{"id": "1113559442", "nd_refs": ["10187841604", "10187841606"], "highway": "footway"}
{"id": "1113559443", "nd_refs": ["10187841607", "4206622901"], "highway": "footway"}
{"id": "1113583054", "nd_refs": ["10188047622", "10188047624", "10188047623"], "highway": "footway"}
{"id": "1113583056", "nd_refs": ["10188047630", "10188047632", "10188047631"], "highway": "footway"}
{"id": "1113583062", "nd_refs": ["10188047631", "10187696073"], "highway": "footway"}
{"id": "1113583063", "nd_refs": ["10188047622", "10187696073"], "highway": "footway"}
{"id": "1113583132", "nd_refs": ["10188047841", "10188047842", "10188047843", "10188047844", "10188047845", "10188047846", "10188047847", "10188047848", "10188047849", "10188047850", "10188047851", "10188047852", "10188047853", "10188047854", "10188047864", "10188047855", "10188047856", "10188047857", "10188047858", "10188047859", "10188047860", "5674498138", "10188047861", "10188047862", "10188047863", "1263263493", "10188047866", "10188047865", "10188047841"], "highway": "footway"}
{"id": "1114897270", "nd_refs": ["2069363596", "10187696069", "10187696066", "26526075", "10187696064", "10187696068", "663380202", "6430873723"], "highway": "residential"}
{"id": "1114897273", "nd_refs": ["4206622898", "1570660660"], "highway": "cycleway"}
{"id": "1114897274", "nd_refs": ["10197152391", "4206622901", "5692890290", "10197020154"], "highway": "footway"}
{"id": "1114913233", "nd_refs": ["10197152348", "6936407779", "6936415885"], "highway": "footway"}
{"id": "1114913234", "nd_refs": ["6936407784", "6936407781", "10197152346"], "highway": "footway"}
{"id": "1114913235", "nd_refs": ["10197152346", "6936407783", "6936407782", "10197152347"], "highway": "footway"}
{"id": "1114913236", "nd_refs": ["10197152347", "6936407780", "6936415891"], "highway": "footway"}
{"id": "1114913237", "nd_refs": ["6936415891", "6936415895", "6936415890"], "highway": "footway"}
{"id": "1114913238", "nd_refs": ["6936415889", "6936415888", "6936415887", "10197152348"], "highway": "footway"}
{"id": "1114913239", "nd_refs": ["6936415885", "10197152345", "6936407784"], "highway": "footway"}
{"id": "1114913241", "nd_refs": ["10197152345", "10197152367", "10197152366"], "highway": "footway"}
{"id": "1114913242", "nd_refs": ["10197152368", "10197152379", "10197152377"], "highway": "footway"}
{"id": "1114913243", "nd_refs": ["10197152372", "10197152381", "10197152366"], "highway": "footway"}
{"id": "1114913244", "nd_refs": ["10197152373", "10197152397", "10197152371", "10197152372"], "highway": "footway"}
{"id": "1114913245", "nd_refs": ["10197152374", "10197152378", "10197152373"], "highway": "footway"}
{"id": "1114913246", "nd_refs": ["10197152375", "10197152370", "10197152374"], "highway": "footway"}
{"id": "1114913247", "nd_refs": ["10197152376", "10197152380", "10197152375"], "highway": "footway"}
{"id": "1114913248", "nd_refs": ["10197152377", "10197152369", "10197152376"], "highway": "footway"}
{"id": "1114913249", "nd_refs": ["10197152367", "10197152368"], "highway": "footway"}
{"id": "1114913250", "nd_refs": ["10197152382", "10197152390", "10197152386"], "highway": "footway"}
{"id": "1114913251", "nd_refs": ["10197152384", "10197152389", "10197152388", "10197152385"], "highway": "footway"}
{"id": "1114913252", "nd_refs": ["10197152385", "10187696114"], "highway": "footway"}
{"id": "1114913253", "nd_refs": ["10197152386", "10197152400", "10197152383", "10197152384"], "highway": "footway"}
{"id": "1114913254", "nd_refs": ["10197020157", "10197152387", "10197152382"], "highway": "footway"}
{"id": "1114913255", "nd_refs": ["10197152391", "10197152394", "10197152392"], "highway": "footway"}
{"id": "1114913256", "nd_refs": ["10197152392", "10187696115"], "highway": "footway"}
{"id": "1114913257", "nd_refs": ["10197152387", "10197152395", "10197152396", "10197152370"], "highway": "footway"}
{"id": "1114913258", "nd_refs": ["10197152397", "10197152398", "10197152399", "10197152400"], "highway": "footway"}
{"id": "1114913259", "nd_refs": ["10197152369", "6936415887"], "highway": "footway"}
{"id": "1114913260", "nd_refs": ["9354572208", "10197152406"], "highway": "footway"}
{"id": "1114913261", "nd_refs": ["10197152407", "9354572207"], "highway": "footway"}
{"id": "1114913262", "nd_refs": ["10197152408", "6936407759", "6936407758", "6936407760", "10197152409"], "highway": "footway"}
{"id": "1114913263", "nd_refs": ["10197152409", "6936407761"], "highway": "footway"}
{"id": "1114913264", "nd_refs": ["10197152410", "10197163418", "6936407756", "10197152408"], "highway": "footway"}
{"id": "1114913265", "nd_refs": ["10197152411", "6936407757", "10197152410"], "highway": "footway"}
{"id": "1114913266", "nd_refs": ["10197152412", "10628342899", "6766449281", "10197152411"], "highway": "footway"}
{"id": "1114913267", "nd_refs": ["6766449282", "10197152413"], "highway": "footway"}
{"id": "1114913268", "nd_refs": ["6936407763", "5641003455", "10197152416"], "highway": "footway"}
{"id": "1115816147", "nd_refs": ["10204969804", "10204969807", "10204969806"], "highway": "footway"}
{"id": "1115851209", "nd_refs": ["10205598513", "3623073634"], "highway": "footway"}
{"id": "1115851210", "nd_refs": ["10205598513", "10205618623", "10205618618", "10205598515", "10205618627"], "highway": "footway"}
{"id": "1115851211", "nd_refs": ["10205598506", "10205618624"], "highway": "steps"}
{"id": "1115851212", "nd_refs": ["10205598501", "10205598509", "10205598515"], "highway": "footway"}
{"id": "1115851213", "nd_refs": ["10205598507", "10205598501", "10205618625", "10205618621"], "highway": "footway"}
{"id": "1115851214", "nd_refs": ["10205618625", "10205598516", "10205598508", "10205618630", "10205598500"], "highway": "footway"}
{"id": "1115851215", "nd_refs": ["10205598500", "10205618621"], "highway": "footway"}
{"id": "1115851216", "nd_refs": ["6469355499", "10205598507", "10205618618"], "highway": "footway"}
{"id": "1115851218", "nd_refs": ["10205598506", "10205618626"], "highway": "footway"}
{"id": "1115851219", "nd_refs": ["10205618627", "10205598506"], "highway": "footway"}
{"id": "1115851220", "nd_refs": ["10205618630", "10205598504", "10205598511", "10205618623"], "highway": "footway"}
{"id": "1115923966", "nd_refs": ["9780863881", "9780863848"], "highway": "footway"}
{"id": "1115923967", "nd_refs": ["9780863856", "10206705295"], "highway": "steps"}
{"id": "1115923968", "nd_refs": ["9780863852", "10206705298"], "highway": "footway"}
{"id": "1115995137", "nd_refs": ["13757737", "9780863918"], "highway": "steps"}
{"id": "1118329007", "nd_refs": ["10228192165", "9780863940"], "highway": "footway"}
{"id": "1118329008", "nd_refs": ["10228192166", "10228192165"], "highway": "steps"}
{"id": "1120244962", "nd_refs": ["10187696263", "10245932132", "10197152383"], "highway": "footway"}
{"id": "1120244963", "nd_refs": ["10197152371", "10245932134", "10245932133", "10245932136"], "highway": "footway"}
{"id": "1120244964", "nd_refs": ["10245932135", "10245932145", "10245932144", "10245932136"], "highway": "footway"}
{"id": "1120244965", "nd_refs": ["10245932137", "10245932146", "10245932138"], "highway": "footway"}
{"id": "1120244966", "nd_refs": ["10245932139", "10187679265", "10245932140"], "highway": "footway"}
{"id": "1120244967", "nd_refs": ["10245932141", "10245932147", "10245932142"], "highway": "footway"}
{"id": "1120244968", "nd_refs": ["10245932135", "10187696168", "10245932137"], "highway": "footway"}
{"id": "1120244969", "nd_refs": ["10245932138", "10245932139"], "highway": "footway"}
{"id": "1120244970", "nd_refs": ["10245932140", "10245932143", "10245932142"], "highway": "footway"}
{"id": "1120244971", "nd_refs": ["10187696263", "10245932133", "10245932141"], "highway": "footway"}
{"id": "1134755075", "nd_refs": ["403820531", "10578673314", "10578673315", "10578673316", "10578673317", "9888818914"], "highway": "proposed"}
{"id": "1134997055", "nd_refs": ["5337904039", "5336794146"], "highway": "footway"}
{"id": "1140688913", "nd_refs": ["9908592258", "10628342886", "10628342887", "10628342888", "10769919178", "10628342889", "10628342893", "10628342890"], "highway": "footway"}
{"id": "1140688917", "nd_refs": ["5641003459", "10628342898", "10628342900", "10628342899"], "highway": "footway"}
{"id": "1149771841", "nd_refs": ["9885516297", "10695935718", "10695935719", "10695935720", "10695935721", "10695935722", "10695935723", "10695935724", "10695935725", "10695935726", "10695935727", "10695935728", "10695935729", "10695935730", "10695935735", "10695935731", "10695935732", "10695935736", "10695935733", "10695935734", "8203851675"], "highway": "proposed"}
{"id": "1152312802", "nd_refs": ["6766449281", "9888821426"], "highway": "footway"}
{"id": "1183161199", "nd_refs": ["10986175013", "9784704029"], "highway": "footway"}
{"id": "1183161200", "nd_refs": ["9784704029", "10986175014"], "highway": "footway"}
{"id": "1183161201", "nd_refs": ["9784704076", "9784704074"], "highway": "footway"}
{"id": "1183161202", "nd_refs": ["9784704074", "9784704075"], "highway": "footway"}
{"id": "1183161203", "nd_refs": ["9784704085", "9784704031"], "highway": "footway"}
{"id": "1183161204", "nd_refs": ["10986175017", "9784704031"], "highway": "footway"}
{"id": "1183161205", "nd_refs": ["9784704086", "9784704031"], "highway": "footway"}
{"id": "1183161206", "nd_refs": ["9784704048", "9784704049"], "highway": "footway"}
{"id": "1183161207", "nd_refs": ["9784704048", "9784704055"], "highway": "footway"}
{"id": "1183161208", "nd_refs": ["9784704048", "9784704054"], "highway": "footway"}
{"id": "1183161209", "nd_refs": ["9784704072", "9784704084"], "highway": "footway"}
{"id": "1183161210", "nd_refs": ["9784704072", "10986175018"], "highway": "footway"}
{"id": "1183161211", "nd_refs": ["9784704072", "9784704083"], "highway": "footway"}
{"id": "1183161212", "nd_refs": ["9784704023", "10986175019", "10986175020", "9784704043"], "highway": "footway"}
{"id": "1183170932", "nd_refs": ["9784704029", "10986175012"], "highway": "footway"}
{"id": "1183170933", "nd_refs": ["9784704058", "10986175012"], "highway": "steps"}
{"id": "1186155100", "nd_refs": ["1836532453", "7671950875"], "highway": "motorway"}
{"id": "1186155101", "nd_refs": ["11017413613", "17395602"], "highway": "motorway"}
{"id": "1186155102", "nd_refs": ["600645167", "11017413614"], "highway": "motorway"}
{"id": "1186155103", "nd_refs": ["10074592763", "10074592762"], "highway": "unclassified"}
{"id": "1186155104", "nd_refs": ["11017413615", "10074592763"], "highway": "unclassified"}
{"id": "1186155105", "nd_refs": ["11017413617", "3921428762", "10187679300", "10187679301", "3921428793", "10187696059", "3921428766"], "highway": "service"}
{"id": "1186155106", "nd_refs": ["11017413616", "171396452", "11017413617"], "highway": "service"}
{"id": "1186155107", "nd_refs": ["5711028994", "10076581832", "7713053818"], "highway": "footway"}
{"id": "1186155108", "nd_refs": ["3736931353", "5711028995", "5711028993", "11017413618"], "highway": "footway"}
{"id": "1193052357", "nd_refs": ["8107810", "5289340993", "10074592758", "2839095710", "5289340989", "11074352633"], "highway": "unclassified"}
{"id": "1193060496", "nd_refs": ["11074448133", "7125451286"], "highway": "steps"}
{"id": "1204782412", "nd_refs": ["9893306612", "11165923578", "11165923579", "11165923580", "11165923581", "11165923586", "11165923582", "11165923583", "11165923584", "11165923585"], "highway": "footway"}
{"id": "8915254", "nd_refs": ["6460058452", "65283721", "6460058442", "6460058474", "733639600", "6460058455", "65283725", "733639601", "6460058449", "65283730", "6460058463", "733639602", "6460058453", "733639604"], "highway": "motorway_link"}
{"id": "8915261", "nd_refs": ["314079639", "6460058447", "6459459587", "65283765", "733638510", "6460058466", "65283768", "65283770", "314079640", "65283773", "65283776"], "highway": "motorway_link"}
{"id": "8915263", "nd_refs": ["65371530", "733634101", "733634117", "6460026498", "314079075", "733634124", "300757485", "733634133", "65283822"], "highway": "motorway_link"}
{"id": "8915288", "nd_refs": ["295222216", "1674117133", "7431716149", "7431716147", "6459446572", "7431716152", "7431716154", "65374349", "6459446583", "7431720652", "299388080", "6459446581", "733582844", "6459446571", "65374346", "733582849", "65374344", "7431720654", "6459446582", "7431720655", "733582853", "7431720653", "6459459588", "733582855", "733583392", "65374342", "65283717"], "highway": "motorway"}
{"id": "8916165", "nd_refs": ["65290267", "1266052289", "6910182926", "7153004350", "8384073016", "7274242032"], "highway": "secondary"}
{"id": "8916338", "nd_refs": ["65296271", "11168048195", "11168048196", "4941620823", "6913643037", "65294602", "6913643038", "6913643039", "65294603"], "highway": "residential"}
{"id": "8916415", "nd_refs": ["65296192", "3617647694", "65296195", "1677798454", "65296201", "1677798444", "1677798452", "65296202", "1677798443", "1677798449", "1677798456", "65296204"], "highway": "residential"}
{"id": "8916798", "nd_refs": ["65282185", "65303885", "539993902", "65303886", "65303894", "5438253600", "65303897"], "highway": "residential"}
{"id": "8917113", "nd_refs": ["65339116", "295219625", "295219626", "5438253597", "295219627", "65303886", "6460058445", "6460058443", "65310195"], "highway": "residential"}
{"id": "8917337", "nd_refs": ["65308756", "295219756", "6639439157"], "highway": "secondary"}
{"id": "8918238", "nd_refs": ["65328382", "5487354237", "5184864690", "65328379"], "highway": "residential"}
{"id": "8918896", "nd_refs": ["65303901", "65332301"], "highway": "service"}
{"id": "8919269", "nd_refs": ["65339116", "3532719196", "3532719195", "4880860065", "4880860061", "65315504"], "highway": "tertiary"}
{"id": "8919947", "nd_refs": ["65317750", "5435462817", "65290263", "295219753", "295219754", "5435462803", "65315506"], "highway": "residential"}
{"id": "8919954", "nd_refs": ["65328379", "4941620853", "65303878"], "highway": "residential"}
{"id": "8919957", "nd_refs": ["1266445596", "5841552052", "65349740"], "highway": "service"}
{"id": "8920626", "nd_refs": ["1677798455", "1677798447", "1677798442", "1677798448", "1677798438", "65358346", "65296192"], "highway": "residential"}
{"id": "8920632", "nd_refs": ["65358372", "5019920132", "5019919801"], "highway": "secondary"}
{"id": "8920691", "nd_refs": ["65303899", "281652585"], "highway": "service"}
{"id": "8920981", "nd_refs": ["65317759", "4183593069", "7133541709"], "highway": "service"}
{"id": "8921643", "nd_refs": ["1677798453", "4183593036", "65317780"], "highway": "unclassified"}
{"id": "8921644", "nd_refs": ["65340076", "299388128", "65310195", "65345898", "6925161651", "65308764", "6925161649", "65358909"], "highway": "residential"}
{"id": "23883760", "nd_refs": ["65303726", "6940438874", "4941620710", "1485472609", "4941620822", "9288964498", "65320168"], "highway": "residential"}
{"id": "23883761", "nd_refs": ["65303723", "6940438891", "4925027421", "9288964513", "65320166"], "highway": "residential"}
{"id": "24547815", "nd_refs": ["4941620875", "4941620874", "266903680"], "highway": "residential"}
{"id": "24547816", "nd_refs": ["1677788979", "65290951"], "highway": "residential"}
{"id": "24547817", "nd_refs": ["266903687", "266903686", "266903685", "266903684", "3965113859", "3965113858", "3965113857", "266903683", "266903682", "266903681"], "highway": "footway"}
{"id": "24547818", "nd_refs": ["65317361", "266903736"], "highway": "footway"}
{"id": "24547819", "nd_refs": ["266903698", "266903707"], "highway": "footway"}
{"id": "24547820", "nd_refs": ["266903707", "266903710"], "highway": "steps"}
{"id": "24547821", "nd_refs": ["266903710", "65290286"], "highway": "footway"}
{"id": "24547822", "nd_refs": ["266903703", "266903708", "266903709", "266903686"], "highway": "footway"}
{"id": "24547837", "nd_refs": ["266903736", "266903735"], "highway": "steps"}
{"id": "24547838", "nd_refs": ["266903735", "266903683", "266903688", "266903690", "266903692", "9955354165", "266903693", "266903694", "266903695", "4761684720", "266903696", "266903697", "266903698", "266903699", "266903700", "266903702", "266903703", "266903704", "266903705", "266903684"], "highway": "footway"}
{"id": "25758513", "nd_refs": ["65317752", "4177086677"], "highway": "tertiary"}
{"id": "25821938", "nd_refs": ["4761685552", "65345898", "5438332469", "10741113158", "65345333"], "highway": "residential"}
{"id": "25821939", "nd_refs": ["4941620861", "7762107216", "4941620855", "65358907", "65358909"], "highway": "residential"}
{"id": "25821940", "nd_refs": ["65296202", "4183593039", "65303914"], "highway": "unclassified"}
{"id": "25821941", "nd_refs": ["281652590", "281652589"], "highway": "service"}
{"id": "25821943", "nd_refs": ["1677798453", "65296211", "4183593033", "4186794510"], "highway": "unclassified"}
{"id": "26943711", "nd_refs": ["3999577857", "65351755", "65358372"], "highway": "secondary"}
{"id": "26943758", "nd_refs": ["10183100125", "1461189670", "10917064503", "3532719204", "2548141867"], "highway": "secondary"}
{"id": "26943964", "nd_refs": ["65371540", "733581128", "7431716160", "733581132", "7431716157", "65371543"], "highway": "motorway"}
{"id": "26944068", "nd_refs": ["257670327", "6460058446", "314079646", "6460058470", "6460058454", "314079708", "6460058468", "314079709", "314079710", "6460058459", "314079711", "314079712", "733638795", "314079713", "733638785", "314079692"], "highway": "motorway_link"}
{"id": "27028807", "nd_refs": ["65317347", "10741568565", "9921917135"], "highway": "residential"}
{"id": "27028821", "nd_refs": ["65308770", "5438332481", "266903680"], "highway": "tertiary"}
{"id": "27029200", "nd_refs": ["1266422681", "65317763", "7133541705", "5438253757", "4186794514"], "highway": "tertiary"}
{"id": "27029204", "nd_refs": ["4184448839", "423781519", "6375094216", "5438253753"], "highway": "tertiary"}
{"id": "27029246", "nd_refs": ["65317754", "4183593057", "7133541707"], "highway": "tertiary"}
{"id": "27029265", "nd_refs": ["65306838", "5434001054", "6587947116", "5434001049", "65351751", "5841552057", "65317570", "9684849385", "5841552055", "65351753", "5435462806", "10740734829", "65317752", "539990269"], "highway": "secondary"}
{"id": "27093197", "nd_refs": ["733639604", "6460058464", "259832882", "6460058475", "733639701", "65283735"], "highway": "motorway_link"}
{"id": "27167281", "nd_refs": ["2548141867", "1266064662", "5038477632"], "highway": "tertiary"}
{"id": "27167756", "nd_refs": ["65283822", "733634142", "314078897", "733634149", "314078898", "6460026507", "733634154", "295221939", "295221940", "733632258", "6460026517", "65283827", "6460026508", "65283829", "314078887", "733632260", "314078882", "6460026501", "733632261", "65283831", "65283833", "6460026518", "6460026516", "295221941", "733630737", "7152700757"], "highway": "motorway_link"}
{"id": "27167768", "nd_refs": ["65283717", "6460058461", "2315558589", "6460058462", "6460058467", "733639375", "733639377", "295223359", "6459459586", "65374339", "6459446573", "314139236", "6459446574", "733639385", "6459446578", "6459446580", "314139237", "295223386", "6459446577", "733639389", "65374337", "733639392", "65374334"], "highway": "motorway"}
{"id": "27374826", "nd_refs": ["65290267", "7274274386"], "highway": "secondary"}
{"id": "28518571", "nd_refs": ["9980713716", "6940438885", "65303723", "6940438880", "6940438877", "65303726"], "highway": "secondary"}
{"id": "28518589", "nd_refs": ["65340079", "6913643014", "6913643015", "10739091668", "65310196"], "highway": "secondary"}
{"id": "29482555", "nd_refs": ["65328382", "6913643013", "65317347"], "highway": "residential"}
{"id": "31129765", "nd_refs": ["314079148", "300757646", "65371933", "300757647", "298081944", "314079200", "65283811", "728909734", "65371935", "728909736", "308712276"], "highway": "motorway"}
{"id": "33111467", "nd_refs": ["2315555430", "2315555358", "6459534722", "2315555425", "65374247", "10171125280", "65374252", "2315555375", "733617890", "2315555374", "65290274", "2315555377", "65374253", "2315555369", "65358341", "2315555416"], "highway": "motorway"}
{"id": "36331967", "nd_refs": ["423781519", "539990268"], "highway": "service"}
{"id": "43101607", "nd_refs": ["65310195", "539993900", "6460058472", "6460058465", "6460058456", "539993901", "539993902", "539993903", "539993904", "539993905", "65339116"], "highway": "residential"}
{"id": "46622632", "nd_refs": ["595775090", "3516015804"], "highway": "service"}
{"id": "58841187", "nd_refs": ["65371543", "2713578421", "7429316012", "2713578417", "7429316034", "2713578422", "2713578414", "7429316054", "2713578452", "2713578479", "2713578449", "7429316014", "2713578453", "7429316036", "2713578428", "2713578456", "2713578448", "7429316016", "7429316056", "7429316052", "2713578482", "7429316032", "2713578481", "2713578475", "2713578420", "2713578441", "7429316010", "2713578465", "2713578467", "2713578459", "2713578427", "7429316051", "2713578454", "2713578436", "2713578457", "2713578483", "7429316030", "2713578429", "2713578444", "7429316008", "2713578440", "2713578442", "2713578431", "7429316049", "2713578443", "2713578470", "7429316028", "2713578463", "2713578445", "7429316006", "2713578468", "2713578486", "7429316047", "7429316026", "2713578484", "2713578432", "7429316004", "2713578469", "2713578458", "7429316057", "2713578419", "2713578471", "2713578437", "2713578477", "2713578485", "7429316037", "2713578438", "2713578461", "7429316015", "2713578446", "2713578455", "2713578416", "2713578418", "7429316055", "2713578434", "9037200166", "2713578415", "7429316013", "2713578433", "7429316035", "2713578464", "729040229"], "highway": "motorway"}
{"id": "84823308", "nd_refs": ["2304626301", "2304626337", "6456587012", "2304626330", "6456587011", "6456587013"], "highway": "tertiary"}
{"id": "110797422", "nd_refs": ["65308770", "6587947091", "4941620863", "3999501315"], "highway": "secondary"}
{"id": "110800913", "nd_refs": ["65320166", "9288964512", "9288964496", "9288964497", "8657001643", "9288964515", "5438253573", "65320168", "1677798439", "5438253570", "65320171", "65320179"], "highway": "residential"}
{"id": "119237653", "nd_refs": ["314139502", "2315555434", "65374309", "733593928", "5293804063", "65284015"], "highway": "motorway"}
{"id": "119237698", "nd_refs": ["733619113", "2315555372", "733619123", "6460080513", "314079729", "6460026495", "65374259", "733637405", "7152732531"], "highway": "motorway"}
{"id": "132813867", "nd_refs": ["1461189674", "1461189670"], "highway": "service"}
{"id": "132813868", "nd_refs": ["1461189690", "1461189685", "1461189674"], "highway": "service"}
{"id": "133735125", "nd_refs": ["300444895", "2304626310", "2304626329", "2304626325", "2274244022", "2274244029", "2304626355"], "highway": "tertiary"}
{"id": "133735128", "nd_refs": ["65317769", "5787928067"], "highway": "secondary"}
{"id": "135243873", "nd_refs": ["9288964511", "5487354231", "9288964510", "9288964508", "9288964509", "9288964507", "8660760114", "1485472609"], "highway": "footway"}
{"id": "154966358", "nd_refs": ["65371530", "7436370569", "1674115436", "7436370561", "2315558265", "7436370566", "7436370563", "2315558267", "7436370559", "2315558271", "2315558270", "7436370567", "7436370560", "7436370564", "2315558272", "7436370562", "1674115433", "7436370570", "2315558268", "7436370565", "2315558274", "7436370568", "1674115432", "1674115435", "7431716145", "65371540"], "highway": "motorway"}
{"id": "155373685", "nd_refs": ["5019919799", "7274235243"], "highway": "tertiary"}
{"id": "162324928", "nd_refs": ["65310197", "10739115722", "5438332457", "65317356", "10741532316", "5438332474", "5438332473", "65308770"], "highway": "residential"}
{"id": "162931810", "nd_refs": ["65315504", "4880860063", "5435465932", "65283737"], "highway": "secondary"}
{"id": "179235236", "nd_refs": ["6460026499", "6460026524", "6460026494", "7152700759"], "highway": "motorway_link"}
{"id": "186398845", "nd_refs": ["65340076", "5438253584", "65282185"], "highway": "residential"}
{"id": "186400371", "nd_refs": ["295219504", "4761685553", "4179515464"], "highway": "secondary"}
{"id": "218146840", "nd_refs": ["300444895", "6913643036", "65296271"], "highway": "tertiary"}
{"id": "218146865", "nd_refs": ["2304626359", "2274244013", "3532718886", "2304626316", "300444895"], "highway": "tertiary"}
{"id": "221434099", "nd_refs": ["2304626334", "6456587019", "6456587000", "3532718887", "6913643035", "3985226613"], "highway": "tertiary"}
{"id": "221434100", "nd_refs": ["2304626360", "3532718888", "6456587018", "6456587017", "2304626334"], "highway": "tertiary"}
{"id": "221434102", "nd_refs": ["11140731908", "65310189", "3532718891", "3532718890", "65339116"], "highway": "tertiary"}
{"id": "221434104", "nd_refs": ["2304626360", "2304626295", "2304626298", "2304626292", "2304626311", "2304626352", "2304626308", "2304626287", "3985226613"], "highway": "tertiary"}
{"id": "224373746", "nd_refs": ["65308756", "6639439160"], "highway": "tertiary"}
{"id": "224384012", "nd_refs": ["65320179", "6913643043", "4941620660", "65317344"], "highway": "residential"}
{"id": "224384013", "nd_refs": ["65317344", "6916354001", "4941618135", "4941618136", "6501716478", "65290926", "65320182", "6916354002", "5438332252", "5443111050", "65320184", "10748295091", "6916354003", "8519903250", "8519903252", "65293491", "6916354004", "65320186", "65320188", "6916354005", "65320191", "6916354006", "6916354007", "65320193", "10839153480", "6916354008", "10750022328", "65320195"], "highway": "residential"}
{"id": "224384015", "nd_refs": ["65296271", "5487354235", "5438253567", "5487354233", "9288964495", "9288964514", "8657001645", "65320166"], "highway": "tertiary"}
{"id": "224384024", "nd_refs": ["65294608", "5839056726", "5839056723", "65290928"], "highway": "unclassified"}
{"id": "224384025", "nd_refs": ["65294604", "6913643044", "10741066960", "65294608"], "highway": "residential"}
{"id": "224384041", "nd_refs": ["65294604", "65328382"], "highway": "secondary"}
{"id": "224384042", "nd_refs": ["65320179", "4941620661", "6917157642", "6917157643", "65294604"], "highway": "secondary"}
{"id": "224384043", "nd_refs": ["65294608", "10741130720", "9921917134"], "highway": "residential"}
{"id": "224384044", "nd_refs": ["65317344", "10741133311", "6913643030", "6913643029", "9921917131"], "highway": "residential"}
{"id": "254299122", "nd_refs": ["65285848", "7365234525", "7365234526", "65371530"], "highway": "motorway"}
{"id": "254299376", "nd_refs": ["65358372", "65308756"], "highway": "secondary"}
{"id": "254299377", "nd_refs": ["65358372", "6639439156"], "highway": "secondary"}
{"id": "254750815", "nd_refs": ["3999561016", "3999566849"], "highway": "secondary"}
{"id": "254750819", "nd_refs": ["10281752883", "65345334", "595775090", "5438332499", "6913643019", "10281752882"], "highway": "secondary"}
{"id": "254759963", "nd_refs": ["65317350", "3999500657"], "highway": "secondary"}
{"id": "254759972", "nd_refs": ["65317350", "9921917129"], "highway": "residential"}
{"id": "256787734", "nd_refs": ["314079692", "7431723118", "6460058460", "7431723117", "7431716159", "7431716156", "7431723116", "7431716162", "7431723120", "7431716143", "65374281", "7431723119", "733583513", "7431716142", "65371540"], "highway": "motorway"}
{"id": "256787755", "nd_refs": ["65283737", "65339108", "65317747", "6587947119", "11057985069", "65339102", "65339101", "5841552059", "65317568"], "highway": "secondary"}
{"id": "315825761", "nd_refs": ["5438253606", "6914381206", "5438253750", "1677798440", "281652589", "5438253617", "10718390137", "65290284", "10718390135", "10074639015", "4761685537", "10718390143", "65290286"], "highway": "tertiary"}
{"id": "331469301", "nd_refs": ["3385456024", "3385456021"], "highway": "service"}
{"id": "331469302", "nd_refs": ["3385456026", "3385456025", "3385456027", "3397422491", "3385456021"], "highway": "service"}
{"id": "331557242", "nd_refs": ["3385456021", "10718390136", "65290284"], "highway": "unclassified"}
{"id": "332593922", "nd_refs": ["3397422488", "3397422489", "3397422490", "3397422491"], "highway": "steps"}
{"id": "344870343", "nd_refs": ["3516015804", "3516015805"], "highway": "service"}
{"id": "344870344", "nd_refs": ["3516015805", "3516015808"], "highway": "service"}
{"id": "344870345", "nd_refs": ["3516015809", "3516015804"], "highway": "service"}
{"id": "344870346", "nd_refs": ["3516015809", "3516015816", "3516015814", "10074652117", "3516015810", "3516015811", "3516015813", "3516015815", "3516015812", "3516015808"], "highway": "service"}
{"id": "344870347", "nd_refs": ["3516015813", "3516015814"], "highway": "service"}
{"id": "344870348", "nd_refs": ["3516015815", "3516015816"], "highway": "service"}
{"id": "344870349", "nd_refs": ["3516015817", "3516015818"], "highway": "service"}
{"id": "344870350", "nd_refs": ["3516015819", "3516015820"], "highway": "service"}
{"id": "344870351", "nd_refs": ["3516015821", "3516015822"], "highway": "service"}
{"id": "344870352", "nd_refs": ["3516015823", "3516015824"], "highway": "service"}
{"id": "344870353", "nd_refs": ["3516015825", "3516015826"], "highway": "service"}
{"id": "344870415", "nd_refs": ["65345334", "3516015822"], "highway": "service"}
{"id": "344870699", "nd_refs": ["3516015807", "3516015826", "3516015824", "3516015822", "3516015820", "3516015818", "3516015804"], "highway": "service"}
{"id": "344870700", "nd_refs": ["3516015808", "3516015809"], "highway": "service"}
{"id": "346766971", "nd_refs": ["6456587015", "3532718889"], "highway": "footway"}
{"id": "355589869", "nd_refs": ["3611937228", "6925562210", "10917204519", "10917204518", "9326505698", "5487246116", "5487246114", "5435465957", "3611937229"], "highway": "service"}
{"id": "356310090", "nd_refs": ["3617647702", "10187566810", "3617647701", "3617647700", "3617647698", "10187566809", "3617647696"], "highway": "service"}
{"id": "356310091", "nd_refs": ["3617647708", "10187566812", "3617647701"], "highway": "service"}
{"id": "356310092", "nd_refs": ["3617647707", "10187566813", "3617647702"], "highway": "service"}
{"id": "356310093", "nd_refs": ["3617647703", "5787928061"], "highway": "service"}
{"id": "356310094", "nd_refs": ["3617647709", "10187566811", "3617647700"], "highway": "service"}
{"id": "356310095", "nd_refs": ["3617647710", "10187566803", "3617647698"], "highway": "service"}
{"id": "356310097", "nd_refs": ["5787928067", "10739273445", "5787928066", "5787928065", "5787928058", "3617647706"], "highway": "service"}
{"id": "356310098", "nd_refs": ["3617647711", "3617647710", "3617647709", "3617647708", "3617647707", "3617647706"], "highway": "service"}
{"id": "391862870", "nd_refs": ["266903680", "1677788979", "4941620882", "266903681", "65317361", "10741154064", "65290291"], "highway": "tertiary"}
{"id": "393294189", "nd_refs": ["266903687", "266903711"], "highway": "steps"}
{"id": "393294190", "nd_refs": ["266903711", "65290291"], "highway": "footway"}
{"id": "393294191", "nd_refs": ["266903683", "3965113861", "3965113862", "3965113863"], "highway": "footway"}
{"id": "393294193", "nd_refs": ["266903703", "3965113889"], "highway": "footway"}
{"id": "394691476", "nd_refs": ["65283717", "6460058450", "6460058448", "9414763700"], "highway": "motorway_link"}
{"id": "394691481", "nd_refs": ["65283776", "6460058457", "65283778", "6460058473", "314079644", "6460058469", "257670327"], "highway": "motorway_link"}
{"id": "397093080", "nd_refs": ["539990269", "4186457681", "7654099285", "7654097584", "65283764"], "highway": "secondary"}
{"id": "397120203", "nd_refs": ["65317750", "65317752"], "highway": "secondary"}
{"id": "397129776", "nd_refs": ["65308767", "6925161653", "3999495551"], "highway": "secondary"}
{"id": "397130093", "nd_refs": ["3999497936", "6589778501", "6925161655", "65308767"], "highway": "secondary"}
{"id": "397130346", "nd_refs": ["3999500657", "5438332515", "10739061546", "65340079"], "highway": "secondary"}
{"id": "397130497", "nd_refs": ["3999501315", "4941620868", "5438332472", "3999497936"], "highway": "secondary"}
{"id": "397130841", "nd_refs": ["3999504912", "5438332479", "65308770"], "highway": "secondary"}
{"id": "397131363", "nd_refs": ["3999495551", "10142259197", "3999511206"], "highway": "secondary"}
{"id": "397131364", "nd_refs": ["3999511206", "6925161652", "65308764"], "highway": "secondary"}
{"id": "397137031", "nd_refs": ["65308764", "6925161650", "6587947087", "3999561016"], "highway": "secondary"}
{"id": "397138005", "nd_refs": ["3999566849", "6587947088", "10739227016", "65303897"], "highway": "secondary"}
{"id": "397138006", "nd_refs": ["65303897", "7152702772"], "highway": "secondary"}
{"id": "397138338", "nd_refs": ["65283764", "6587947117", "7540414857", "7171384820", "6639439155"], "highway": "secondary"}
{"id": "398499274", "nd_refs": ["65330447", "4012499525", "1677798453"], "highway": "unclassified"}
{"id": "398499275", "nd_refs": ["65330447", "5438332317", "5438332314", "5438332311", "65330449"], "highway": "residential"}
{"id": "398499276", "nd_refs": ["65296204", "1677798450", "1677798445", "1677798451", "65330447"], "highway": "residential"}
{"id": "398499280", "nd_refs": ["4012499534", "8756912319", "6459943252", "6459943251", "4012499533", "6459943250", "6459943249", "4012499532", "6459943253", "8756912320", "8756912321", "4012499531"], "highway": "secondary_link"}
{"id": "398499281", "nd_refs": ["3617647694", "3617647697", "10187566816", "3617647699", "3617647703", "3617647702"], "highway": "service"}
{"id": "406719126", "nd_refs": ["65317754", "4183593064", "65317756", "65317759", "5437876921", "1266422681"], "highway": "tertiary"}
{"id": "417087352", "nd_refs": ["4177086677", "5435462809", "4183593059", "7133541708", "65317754"], "highway": "tertiary"}
{"id": "417392975", "nd_refs": ["4179515464", "7152702781"], "highway": "secondary"}
{"id": "417400705", "nd_refs": ["2548141867", "7326724453"], "highway": "secondary"}
{"id": "417400709", "nd_refs": ["65283764", "65290263", "65283737", "6913411233", "10004776676", "1461189695", "65290262"], "highway": "secondary"}
{"id": "417886746", "nd_refs": ["4183593022", "4183593023", "4183593024", "4183593025", "4183593027", "4183593028", "4183593029", "4183593030", "4183593022"], "highway": "footway"}
{"id": "417886749", "nd_refs": ["4183593062", "4183593063", "4183593064", "4183593066", "4183593056"], "highway": "footway"}
{"id": "417979324", "nd_refs": ["65325015", "4184448838"], "highway": "tertiary"}
{"id": "417979325", "nd_refs": ["4184448838", "7274235244", "10146674661", "65290267"], "highway": "tertiary"}
{"id": "417979326", "nd_refs": ["65317754", "4183593061", "4184448839"], "highway": "tertiary"}
{"id": "418196680", "nd_refs": ["4186457681", "4186457682"], "highway": "service"}
{"id": "418241132", "nd_refs": ["4547300236", "8756837558", "8756837555", "8756837552", "4186794512", "8756837556", "8756837553", "4186794513", "8756837551", "8756837554", "8756837557", "4186794514"], "highway": "secondary_link"}
{"id": "419633758", "nd_refs": ["65290286", "10718390145", "6914381205", "6914381204", "65290291"], "highway": "tertiary"}
{"id": "419633759", "nd_refs": ["65290286", "10718390146", "5438332429", "65328978", "65330449", "6913643021", "4183593028", "65296214"], "highway": "secondary"}
{"id": "419657503", "nd_refs": ["65290291", "6914381203", "6914381202", "6914381200", "65290294"], "highway": "tertiary"}
{"id": "419657507", "nd_refs": ["65290291", "65317363", "4183593017", "65317366", "4183593021", "65317369", "4183593009", "4183592992", "65317371"], "highway": "tertiary"}
{"id": "475173494", "nd_refs": ["4689655115", "5438253581"], "highway": "service"}
{"id": "478345678", "nd_refs": ["2713578473", "7429316041", "7836659231", "728910078", "65371923", "7429316017", "728910369", "295222216"], "highway": "motorway"}
{"id": "483432842", "nd_refs": ["65303901", "1677798440"], "highway": "residential"}
{"id": "483432843", "nd_refs": ["65303899", "65303901"], "highway": "residential"}
{"id": "483432844", "nd_refs": ["3385456026", "65328978"], "highway": "residential"}
{"id": "483432845", "nd_refs": ["65328978", "5438332435", "65317363"], "highway": "residential"}
{"id": "483432846", "nd_refs": ["65296192", "5438253741", "65303911", "5438253747", "5438253744", "281652590", "5438253727", "5438253620", "4761685548"], "highway": "residential"}
{"id": "483432847", "nd_refs": ["4761685548", "65328976", "3397422488", "5438332424", "5438332319", "3385456022", "3385456026"], "highway": "residential"}
{"id": "483432850", "nd_refs": ["4761685554", "295219504"], "highway": "secondary"}
{"id": "483432851", "nd_refs": ["65308756", "4761685557", "7152702776"], "highway": "secondary"}
{"id": "483432852", "nd_refs": ["65310197", "10739115721", "10713395411", "4761684653"], "highway": "residential"}
{"id": "483432853", "nd_refs": ["65310195", "5438332463", "5438332460", "65310196"], "highway": "residential"}
{"id": "483432855", "nd_refs": ["65303894", "4761685552"], "highway": "residential"}
{"id": "483432867", "nd_refs": ["4761685540", "4761685542"], "highway": "steps"}
{"id": "483432868", "nd_refs": ["4761685537", "4761685540"], "highway": "footway"}
{"id": "483432873", "nd_refs": ["4761685543", "4761685544", "3516015811"], "highway": "footway"}
{"id": "483432874", "nd_refs": ["4761685542", "4761685541", "4761685538", "4761685539", "4761685543"], "highway": "steps"}
{"id": "496374147", "nd_refs": ["4880860065", "4880860066", "3532718892"], "highway": "footway"}
{"id": "501802407", "nd_refs": ["4925013307", "4925013306", "4925013305", "4925013304", "4925013303", "4925013302", "4925013301", "4925013300", "4925013299", "4925013298", "4925013297", "4925013296"], "highway": "path"}
{"id": "501802408", "nd_refs": ["4925013309", "4925013308"], "highway": "footway"}
{"id": "501802409", "nd_refs": ["4925013315", "4925013307", "4925013309", "4925013310"], "highway": "footway"}
{"id": "501802410", "nd_refs": ["4925013319", "4925013315"], "highway": "footway"}
{"id": "501802411", "nd_refs": ["4925013312", "4925013313", "4925013311"], "highway": "footway"}
{"id": "501802412", "nd_refs": ["4925013315", "4925013314", "4925013313"], "highway": "footway"}
{"id": "501802413", "nd_refs": ["4925013320", "4925013319"], "highway": "steps"}
{"id": "501802414", "nd_refs": ["4925013319", "4925013308", "4925013316"], "highway": "footway"}
{"id": "501802415", "nd_refs": ["4925013316", "4925013318"], "highway": "steps"}
{"id": "501802416", "nd_refs": ["4925013318", "6940434148"], "highway": "footway"}
{"id": "501802417", "nd_refs": ["4925027421", "11168062612", "4925013320"], "highway": "footway"}
{"id": "503918490", "nd_refs": ["4941618135", "8891346711", "4941618134", "7543988742", "4941618133"], "highway": "service"}
{"id": "503918539", "nd_refs": ["4941620661", "5438332501"], "highway": "service"}
{"id": "503918564", "nd_refs": ["4941620715", "4941620714"], "highway": "service"}
{"id": "503918565", "nd_refs": ["4941620716", "4941620714", "4941620717"], "highway": "service"}
{"id": "503918566", "nd_refs": ["5438253560", "4941620821", "4941620715", "4941620720", "4941620719", "4941620718", "4941620717"], "highway": "service"}
{"id": "503918577", "nd_refs": ["4941620847", "4941620846", "4941620845"], "highway": "service"}
{"id": "503918578", "nd_refs": ["4941620852", "4941620848", "4941620851", "4941620850", "4941620847", "4941620849", "4941620845", "4941620848"], "highway": "service"}
{"id": "503918579", "nd_refs": ["4941620855", "4941620854"], "highway": "service"}
{"id": "503918580", "nd_refs": ["4941620856", "4941620857", "4941620858", "4941620859", "4941620860"], "highway": "service"}
{"id": "503918581", "nd_refs": ["4941620863", "5438332480"], "highway": "service"}
{"id": "503918583", "nd_refs": ["5438332483", "5438332484", "4941620869"], "highway": "service"}
{"id": "503918584", "nd_refs": ["4941620870", "4941620871"], "highway": "service"}
{"id": "503918585", "nd_refs": ["4941620870", "4941620873", "4941620872", "4941620871"], "highway": "service"}
{"id": "504300635", "nd_refs": ["4941620861", "4941620856"], "highway": "service"}
{"id": "504300636", "nd_refs": ["3516015806", "3516015807"], "highway": "service"}
{"id": "504300637", "nd_refs": ["3516015805", "3516015817", "3516015819", "3516015821", "3516015823", "3516015825", "3516015806"], "highway": "service"}
{"id": "513595717", "nd_refs": ["65290267", "5019919799"], "highway": "tertiary"}
{"id": "513595718", "nd_refs": ["5019919799", "5019919806", "5019919805", "6587947086", "5019919804", "5019919803", "5019919802", "5019920134"], "highway": "secondary"}
{"id": "513595719", "nd_refs": ["5019920134", "5019920133", "65358372"], "highway": "secondary"}
{"id": "513700709", "nd_refs": ["65308767", "6925161654", "6913643017", "6913643016", "5020779103"], "highway": "secondary"}
{"id": "514620726", "nd_refs": ["65317347", "5839056741", "6639288581"], "highway": "residential"}
{"id": "514669211", "nd_refs": ["65313437", "10741074660", "65320179"], "highway": "secondary"}
{"id": "515521092", "nd_refs": ["65283735", "314079620", "1260360939", "6460058477", "6460058444", "6460058458", "65283737"], "highway": "motorway_link"}
{"id": "516061744", "nd_refs": ["2548141868", "3532719202", "2548141867"], "highway": "tertiary"}
{"id": "534677317", "nd_refs": ["5487354236", "5184864689", "5438253577"], "highway": "service"}
{"id": "564080438", "nd_refs": ["5435462808", "5435462807"], "highway": "service"}
{"id": "564080439", "nd_refs": ["5435462809", "5435462808"], "highway": "service"}
{"id": "564080443", "nd_refs": ["5435462816", "5435462815"], "highway": "service"}
{"id": "564080444", "nd_refs": ["5435462817", "5435462816"], "highway": "service"}
{"id": "564080450", "nd_refs": ["5435465932", "5435465926"], "highway": "service"}
{"id": "564080451", "nd_refs": ["5435465931", "5435465925"], "highway": "service"}
{"id": "564080452", "nd_refs": ["5435465926", "5756381938", "5435465931", "5435465930", "5435465929", "5435465925"], "highway": "service"}
{"id": "564080453", "nd_refs": ["5435462803", "5435465936", "5435465935", "5435465934", "5435465933"], "highway": "service"}
{"id": "564435364", "nd_refs": ["5438253529", "5438253528", "5438253756", "5438253527"], "highway": "service"}
{"id": "564435387", "nd_refs": ["5438253569", "5438253568"], "highway": "service"}
{"id": "564435388", "nd_refs": ["5438253570", "5438253569"], "highway": "service"}
{"id": "564435391", "nd_refs": ["4941620823", "11168062606", "5449464493", "5449464494", "11168062607", "5438253573"], "highway": "service"}
{"id": "564435395", "nd_refs": ["5438253576", "5438253575", "5438253574", "6515873893"], "highway": "service"}
{"id": "564435396", "nd_refs": ["5184864689", "5184864690"], "highway": "service"}
{"id": "564435397", "nd_refs": ["5438253578", "5438253579"], "highway": "service"}
{"id": "564435398", "nd_refs": ["5438253579", "5438253580"], "highway": "service"}
{"id": "564435399", "nd_refs": ["5438253581", "4689655116"], "highway": "service"}
{"id": "564435400", "nd_refs": ["5438253583", "5438253582"], "highway": "service"}
{"id": "564435401", "nd_refs": ["5438253584", "5438253583"], "highway": "service"}
{"id": "564435403", "nd_refs": ["6515873894", "5438253589", "5438253588", "5438253590", "5438253586"], "highway": "service"}
{"id": "564435404", "nd_refs": ["5438253588", "5438253587"], "highway": "service"}
{"id": "564435406", "nd_refs": ["5438253597", "5438253596"], "highway": "service"}
{"id": "564435407", "nd_refs": ["5438253592", "5438253596", "5438253593"], "highway": "service"}
{"id": "564435408", "nd_refs": ["5438253596", "5438253595", "5438253594"], "highway": "service"}
{"id": "564435409", "nd_refs": ["5438253599", "5438253598"], "highway": "service"}
{"id": "564435410", "nd_refs": ["5438253600", "5438253599"], "highway": "service"}
{"id": "564435411", "nd_refs": ["3999577857", "5438253603"], "highway": "service"}
{"id": "564435412", "nd_refs": ["5438253603", "5438253602", "5438253601", "5438253603"], "highway": "service"}
{"id": "564435413", "nd_refs": ["4941620860", "4941620856"], "highway": "service"}
{"id": "564435414", "nd_refs": ["5438253605", "5438253604"], "highway": "service"}
{"id": "564435415", "nd_refs": ["5438253606", "5438253605"], "highway": "service"}
{"id": "564435416", "nd_refs": ["5438253613", "5438253612"], "highway": "service"}
{"id": "564435418", "nd_refs": ["5438253612", "5438253611", "5438253610", "5438253607", "5438253609", "5438253608", "5438253607"], "highway": "service"}
{"id": "564435420", "nd_refs": ["5438253617", "10718390123", "10718390124", "5438253614", "10718390128"], "highway": "service"}
{"id": "564435422", "nd_refs": ["5438253614", "10718390129", "10718390130", "10718390126", "5438253615"], "highway": "service"}
{"id": "564435424", "nd_refs": ["5438253619", "5438253618"], "highway": "service"}
{"id": "564435426", "nd_refs": ["5438253620", "5438253619"], "highway": "service"}
{"id": "564435428", "nd_refs": ["5438253727", "5438253726", "5438253725"], "highway": "service"}
{"id": "564435430", "nd_refs": ["5438253725", "5438253721", "5438253724", "5438253723"], "highway": "service"}
{"id": "564435432", "nd_refs": ["5438253734", "5438253733", "5438253732", "5438253731", "5438253739"], "highway": "service"}
{"id": "564435434", "nd_refs": ["5438253741", "5438253740"], "highway": "service"}
{"id": "564435436", "nd_refs": ["5438253734", "5438253728"], "highway": "service"}
{"id": "564435438", "nd_refs": ["5438253735", "5438253730", "5438253729", "5438253740"], "highway": "service"}
{"id": "564435441", "nd_refs": ["5438253740", "5438253739", "5438253738", "5438253737", "5438253736", "5438253735", "5438253734"], "highway": "service"}
{"id": "564435443", "nd_refs": ["5438253743", "5438253742"], "highway": "service"}
{"id": "564435445", "nd_refs": ["5438253746", "5438253745"], "highway": "service"}
{"id": "564435447", "nd_refs": ["5438253744", "5438253743"], "highway": "service"}
{"id": "564435448", "nd_refs": ["5438253747", "5438253746"], "highway": "service"}
{"id": "564435450", "nd_refs": ["5438253749", "5438253748"], "highway": "service"}
{"id": "564435453", "nd_refs": ["5438253751", "5438253750"], "highway": "service"}
{"id": "564435455", "nd_refs": ["5438253752", "5438253749", "5438253751"], "highway": "service"}
{"id": "564435457", "nd_refs": ["65303911", "5438253752"], "highway": "service"}
{"id": "564435459", "nd_refs": ["5438253754", "5438253753"], "highway": "service"}
{"id": "564435461", "nd_refs": ["5438253527", "10228106911", "5438253754"], "highway": "service"}
{"id": "564445292", "nd_refs": ["5438332316", "5438332315"], "highway": "service"}
{"id": "564445293", "nd_refs": ["5438332313", "5438332312"], "highway": "service"}
{"id": "564445294", "nd_refs": ["5438332310", "5438332309"], "highway": "service"}
{"id": "564445295", "nd_refs": ["5438332311", "5438332310"], "highway": "service"}
{"id": "564445296", "nd_refs": ["5438332314", "5438332313"], "highway": "service"}
{"id": "564445297", "nd_refs": ["5438332317", "5438332316"], "highway": "service"}
{"id": "564445298", "nd_refs": ["5438332423", "5438332422"], "highway": "service"}
{"id": "564445299", "nd_refs": ["5438332424", "5438332423"], "highway": "service"}
{"id": "564445300", "nd_refs": ["5438332318", "5438332319"], "highway": "service"}
{"id": "564445301", "nd_refs": ["5438332320", "5438332318"], "highway": "service"}
{"id": "564445302", "nd_refs": ["5438332422", "5438332421", "5438332320"], "highway": "service"}
{"id": "564445303", "nd_refs": ["5438332429", "5438332428"], "highway": "service"}
{"id": "564445304", "nd_refs": ["5438332426", "5438332425"], "highway": "service"}
{"id": "564445305", "nd_refs": ["5438332428", "5438332426", "5438332427"], "highway": "service"}
{"id": "564445306", "nd_refs": ["5438332435", "5438332434"], "highway": "service"}
{"id": "564445307", "nd_refs": ["5438332434", "5438332433", "5438332432", "5438332431", "5438332430", "5438332434"], "highway": "service"}
{"id": "564445311", "nd_refs": ["4941620882", "10715875323", "4941620878"], "highway": "service"}
{"id": "564445313", "nd_refs": ["5438332446", "9921967272", "5438332445", "5438332444", "9921967261", "9921967262", "9921967263"], "highway": "service"}
{"id": "564445316", "nd_refs": ["10828253120", "10828253119", "5438332456"], "highway": "service"}
{"id": "564445317", "nd_refs": ["5438332453", "5438332452", "5438332451", "5438332450"], "highway": "service"}
{"id": "564445318", "nd_refs": ["5438332456", "5438332450", "5438332453", "5438332455", "5438332454"], "highway": "service"}
{"id": "564445319", "nd_refs": ["5438332461", "5438332458"], "highway": "service"}
{"id": "564445320", "nd_refs": ["5438332462", "5438332461"], "highway": "service"}
{"id": "564445321", "nd_refs": ["5438332458", "5438332460"], "highway": "service"}
{"id": "564445322", "nd_refs": ["5438332463", "5438332459"], "highway": "service"}
{"id": "564445323", "nd_refs": ["5438332459", "5438332462"], "highway": "service"}
{"id": "564445324", "nd_refs": ["5438332467", "5438332464"], "highway": "service"}
{"id": "564445325", "nd_refs": ["5438332469", "5438332468"], "highway": "service"}
{"id": "564445326", "nd_refs": ["5438332468", "5438332466", "5438332465", "5438332464"], "highway": "service"}
{"id": "564445327", "nd_refs": ["5438332468", "5438332467"], "highway": "service"}
{"id": "564445328", "nd_refs": ["5438332471", "5438332470"], "highway": "service"}
{"id": "564445329", "nd_refs": ["5438332472", "5438332471"], "highway": "service"}
{"id": "564445331", "nd_refs": ["5438332477", "5438332473"], "highway": "service"}
{"id": "564445332", "nd_refs": ["5438332475", "5438332474"], "highway": "service"}
{"id": "564445333", "nd_refs": ["5438332478", "5438332477", "5438332475", "5438332476"], "highway": "service"}
{"id": "564445334", "nd_refs": ["5438332480", "4941620862"], "highway": "service"}
{"id": "564445335", "nd_refs": ["5438332482", "5438332483"], "highway": "service"}
{"id": "564445336", "nd_refs": ["4941620869", "5438332485"], "highway": "service"}
{"id": "564445337", "nd_refs": ["5438332481", "5438332482"], "highway": "service"}
{"id": "564445338", "nd_refs": ["5438332485", "4941620868"], "highway": "service"}
{"id": "564445339", "nd_refs": ["5438332487", "5438332488", "5438332486"], "highway": "service"}
{"id": "564445340", "nd_refs": ["5438332488", "4941620874", "11024081042"], "highway": "service"}
{"id": "564445341", "nd_refs": ["5438332496", "5020779103"], "highway": "service"}
{"id": "564445342", "nd_refs": ["5438332497", "5438332496"], "highway": "service"}
{"id": "564445343", "nd_refs": ["5438332496", "6913643018", "5438332494", "5438332493", "5438332492", "5438332490", "5438332489"], "highway": "service"}
{"id": "564445345", "nd_refs": ["3999497936", "5438332489"], "highway": "service"}
{"id": "564445346", "nd_refs": ["3516015809", "5438332499"], "highway": "service"}
{"id": "564445348", "nd_refs": ["5438332502", "4941620660"], "highway": "service"}
{"id": "564445350", "nd_refs": ["5438332501", "5438332502"], "highway": "service"}
{"id": "564445356", "nd_refs": ["5438332514", "5438332513"], "highway": "service"}
{"id": "564445358", "nd_refs": ["5438332515", "5438332514"], "highway": "service"}
{"id": "570786827", "nd_refs": ["5487354236", "4941620841", "4941620842"], "highway": "service"}
{"id": "570786828", "nd_refs": ["5487354237", "5438253578"], "highway": "service"}
{"id": "570786829", "nd_refs": ["6925562220", "2304626330", "8490028776", "6456587008", "6940434152"], "highway": "footway"}
{"id": "573287808", "nd_refs": ["2548141872", "2548095095", "2548141869", "11080945306", "11080945311", "6925558102", "11080945309", "6925558101", "6925558100", "6925558099", "2548141868"], "highway": "tertiary"}
{"id": "594569788", "nd_refs": ["5438253723", "5438253722", "5438253721"], "highway": "service"}
{"id": "607394420", "nd_refs": ["5435465925", "5435465928", "5435465927", "5435465926"], "highway": "service"}
{"id": "611290713", "nd_refs": ["3617647706", "5787928061", "5787928060", "5787928059", "3617647705", "3617647704", "5787928068", "10187566814", "3617647699"], "highway": "service"}
{"id": "617711534", "nd_refs": ["5839056742", "5839056743", "5839056744", "5839056745", "5839056746", "5839056747", "5839056734", "5839056748", "5839056749", "5839056750", "5839056751", "5839056752", "5839056753", "5839056754", "5839056755", "5839056763"], "highway": "footway"}
{"id": "617730081", "nd_refs": ["308712276", "65371937", "65371940"], "highway": "motorway"}
{"id": "617730082", "nd_refs": ["65374334", "6459446579", "65374333", "733639396", "65374332", "733639400", "65374329", "733639410", "65374327", "65374325", "65374323", "6459459585", "295223287", "6459534714", "6460080511", "314139502"], "highway": "motorway"}
{"id": "617730083", "nd_refs": ["733619113", "6460026515", "2315555437", "6460026499"], "highway": "motorway_link"}
{"id": "617730084", "nd_refs": ["295221942", "295220017", "6460026496", "6460080510", "314139502"], "highway": "motorway_link"}
{"id": "617895234", "nd_refs": ["295222216", "7431716153", "728917817", "7431716161", "728917836", "7431716158", "728909725", "7431716155", "65371930", "728909726", "7431716151", "295222204", "7431716148", "7431716141", "7431716150", "7431716144", "7431716146", "314079201", "314079148"], "highway": "motorway"}
{"id": "620728082", "nd_refs": ["65340079", "65340076"], "highway": "residential"}
{"id": "620728083", "nd_refs": ["65294603", "65283409", "65328379", "5438253580", "4689655116", "65340076"], "highway": "residential"}
{"id": "620728089", "nd_refs": ["65313433", "2156202658", "65320171", "65294603"], "highway": "residential"}
{"id": "620728090", "nd_refs": ["65294603", "6913643040", "6913643041", "4941620842"], "highway": "residential"}
{"id": "620728092", "nd_refs": ["65328382", "10741127221", "65340079"], "highway": "secondary"}
{"id": "620728093", "nd_refs": ["2304626334", "65340073"], "highway": "tertiary"}
{"id": "628897455", "nd_refs": ["2315555416", "65283758", "733619113"], "highway": "motorway"}
{"id": "634411999", "nd_refs": ["5987118546", "5987119182"], "highway": "footway"}
{"id": "634412034", "nd_refs": ["5987118883", "5987119088", "5987119095", "5987118546", "5987119394", "5987118884", "5987119388", "5987265747", "5987119085", "5987137963", "5987118543", "5987119096", "11168048192", "5987119086", "5987119087", "5987119390", "5987118883"], "highway": "footway"}
{"id": "634412035", "nd_refs": ["11168062633", "2274244022", "6456587014"], "highway": "footway"}
{"id": "634412036", "nd_refs": ["11168062628", "2304626312", "11168062631"], "highway": "footway"}
{"id": "634412037", "nd_refs": ["65303878", "5987119389", "2304626312", "7210516367"], "highway": "residential"}
{"id": "634412038", "nd_refs": ["5487354242", "6940434153"], "highway": "footway"}
{"id": "634412040", "nd_refs": ["5987118542", "5987119097", "5987265745", "5987119098", "5987119099"], "highway": "footway"}
{"id": "634412041", "nd_refs": ["5987119100", "5987119101", "5987265744", "5987119102", "5987119103"], "highway": "footway"}
{"id": "634412042", "nd_refs": ["5987119098", "5987119104", "5987119105"], "highway": "footway"}
{"id": "634412043", "nd_refs": ["5987119105", "5987119101"], "highway": "footway"}
{"id": "634412054", "nd_refs": ["5987119182", "5987119183"], "highway": "steps"}
{"id": "634412055", "nd_refs": ["5987119183", "5987119386", "5987118544", "5987118545", "5987265746", "5987119103", "5987119100", "5987119099", "5987118541", "5987118542", "5987118543"], "highway": "footway"}
{"id": "634412056", "nd_refs": ["5987119184", "5987119386", "5987119385", "5987119387"], "highway": "footway"}
{"id": "634412057", "nd_refs": ["5987119387", "5987119397", "5987119388"], "highway": "footway"}
{"id": "634412060", "nd_refs": ["5987119390", "5987119391", "5987119392", "5987119393", "5987119184"], "highway": "footway"}
{"id": "634412061", "nd_refs": ["5987119394", "5987119395"], "highway": "footway"}
{"id": "634412062", "nd_refs": ["5987119395", "5987119396"], "highway": "steps"}
{"id": "634412063", "nd_refs": ["5987119396", "5987119397", "5991623594"], "highway": "footway"}
{"id": "634415563", "nd_refs": ["5987137902", "5987137903", "5987137904", "5987137905"], "highway": "footway"}
{"id": "634415564", "nd_refs": ["5987137902", "5987137906", "5987137907", "5987137905"], "highway": "footway"}
{"id": "634415565", "nd_refs": ["5987137905", "5987137901"], "highway": "footway"}
{"id": "634415566", "nd_refs": ["5991623594", "5987137908"], "highway": "footway"}
{"id": "634415567", "nd_refs": ["5987137908", "5987137902"], "highway": "footway"}
{"id": "634415570", "nd_refs": ["5987137963", "5987137970", "5987137964"], "highway": "footway"}
{"id": "634415571", "nd_refs": ["5987137964", "5987137965"], "highway": "steps"}
{"id": "634415572", "nd_refs": ["5987137965", "5987137966", "5987137967", "5987137968", "5987137969"], "highway": "footway"}
{"id": "634433860", "nd_refs": ["5449464503", "5987265744"], "highway": "footway"}
{"id": "634433862", "nd_refs": ["5184864687", "5987265745"], "highway": "footway"}
{"id": "634433864", "nd_refs": ["5184864686", "5987265746"], "highway": "footway"}
{"id": "634433866", "nd_refs": ["5449464496", "5987265747"], "highway": "footway"}
{"id": "680820493", "nd_refs": ["65317754", "6375096096", "6375096095", "6375094245", "5438253753"], "highway": "cycleway"}
{"id": "680820495", "nd_refs": ["5438253753", "6587942781", "4012499534"], "highway": "tertiary"}
{"id": "680820498", "nd_refs": ["6375096098", "6375096095", "6375096097"], "highway": "footway"}
{"id": "680820499", "nd_refs": ["6375096100", "6375096099"], "highway": "footway"}
{"id": "680820500", "nd_refs": ["4183593062", "6375096097", "5438253754"], "highway": "footway"}
{"id": "680820501", "nd_refs": ["4183593060", "4183593061", "6375096099", "6375096096", "4183593062"], "highway": "footway"}
{"id": "680820502", "nd_refs": ["4183593058", "4183593059", "4183593060"], "highway": "footway"}
{"id": "680820503", "nd_refs": ["4183593056", "4183593057", "4183593058"], "highway": "footway"}
{"id": "680820505", "nd_refs": ["6375096105", "6375096100", "6375096104", "6375096103", "6375096102", "6375096101", "6375096098", "6375096105"], "highway": "platform"}
{"id": "688508129", "nd_refs": ["2304626336", "7210516368"], "highway": "tertiary"}
{"id": "688508130", "nd_refs": ["2304626359", "2304626299", "2304626322", "2304626356", "2304626286", "2304626321", "2304626313", "2304626355"], "highway": "tertiary"}
{"id": "688508131", "nd_refs": ["2304626301", "2304626342", "2304626336"], "highway": "tertiary"}
{"id": "688508132", "nd_refs": ["2304626355", "2304626307", "2304626301"], "highway": "tertiary"}
{"id": "688508133", "nd_refs": ["6456587007", "6456587004", "6456587003", "6456586998", "6456587002", "6456587001", "2304626363"], "highway": "tertiary"}
{"id": "688508134", "nd_refs": ["5038477632", "6916353992", "3611937228", "6456587007"], "highway": "tertiary"}
{"id": "688508135", "nd_refs": ["6456587013", "6456587010", "6456586999", "6456587008", "6456587009", "2304626336"], "highway": "tertiary"}
{"id": "688508136", "nd_refs": ["6456587013", "9980713713"], "highway": "tertiary"}
{"id": "694006774", "nd_refs": ["65340073", "65283553", "5438253591"], "highway": "tertiary"}
{"id": "700908802", "nd_refs": ["2304626363", "2304626360"], "highway": "tertiary"}
{"id": "706548256", "nd_refs": ["6639439155", "3999577857"], "highway": "secondary"}
{"id": "706548257", "nd_refs": ["6639439156", "7152702784"], "highway": "secondary"}
{"id": "706548258", "nd_refs": ["9470669678", "4880860064", "65315504"], "highway": "secondary"}
{"id": "706548259", "nd_refs": ["5019919801", "65358391", "65358395", "65358397", "7274235241"], "highway": "secondary"}
{"id": "706548260", "nd_refs": ["6639439158", "7152702782"], "highway": "secondary"}
{"id": "706548261", "nd_refs": ["6639439159", "7152702775"], "highway": "secondary"}
{"id": "706548262", "nd_refs": ["6639439160", "65283780", "65345893", "65358378", "3532719197", "65358380", "65339116"], "highway": "tertiary"}
{"id": "738335921", "nd_refs": ["5438332489", "5438332497"], "highway": "service"}
{"id": "738335922", "nd_refs": ["3985226613", "7210516367", "3985226614", "2304626358", "2304626359"], "highway": "tertiary"}
{"id": "739616024", "nd_refs": ["6925161667", "6925161650", "6925161666"], "highway": "footway"}
{"id": "739616030", "nd_refs": ["6925161665", "6925161652", "6925161664"], "highway": "footway"}
{"id": "739616034", "nd_refs": ["6925161664", "6925161651", "6925161667"], "highway": "footway"}
{"id": "739616036", "nd_refs": ["6925161666", "6925161649", "6925161665"], "highway": "footway"}
{"id": "739616037", "nd_refs": ["6925161673", "6925161660", "6925161672", "6925161661", "6925161674", "6925161675", "6925161673"], "highway": "platform"}
{"id": "739658858", "nd_refs": ["6925562205", "6925578082", "6925562204", "6925562203"], "highway": "footway"}
{"id": "739658859", "nd_refs": ["6925562209", "6925562208", "6925562206", "6925562207", "6925562203", "6925562209"], "highway": "platform"}
{"id": "739658860", "nd_refs": ["5487354242", "6925562210", "6925562217"], "highway": "footway"}
{"id": "739658861", "nd_refs": ["6925562216", "6925562205", "11168062634"], "highway": "footway"}
{"id": "739658862", "nd_refs": ["6925562219", "6925562215", "6925562214", "6925562213", "6925562211", "11080945313", "6925562212", "11080945312", "11080945314", "6925558097"], "highway": "footway"}
{"id": "739658863", "nd_refs": ["6925562218", "6925558098", "11166210314", "11166210315", "11166210316"], "highway": "footway"}
{"id": "739658864", "nd_refs": ["6925562216", "3532719204", "6925562219"], "highway": "footway"}
{"id": "739658865", "nd_refs": ["6925562217", "1266064662", "6925562216"], "highway": "footway"}
{"id": "739658870", "nd_refs": ["6925562218", "3532719203", "6925562217"], "highway": "footway"}
{"id": "739658871", "nd_refs": ["6925562219", "3532719202", "7721364113", "6925562218"], "highway": "footway"}
{"id": "739658872", "nd_refs": ["9288964504", "11168048200", "11168048199", "11168048198", "11168048197", "5487354240", "6940434151", "6925562220"], "highway": "footway"}
{"id": "739658873", "nd_refs": ["6925562221", "11168062634", "11168062630", "5487354238"], "highway": "footway"}
{"id": "741353098", "nd_refs": ["6940438887", "6940434147", "6940434148", "6940434149", "6940434150", "6940434151"], "highway": "footway"}
{"id": "741353099", "nd_refs": ["6940434152", "5487354242"], "highway": "footway"}
{"id": "741353100", "nd_refs": ["6940434153", "2304626320", "8490028777", "6456587002", "6925562221"], "highway": "footway"}
{"id": "760623356", "nd_refs": ["4012499534", "65325015"], "highway": "tertiary"}
{"id": "760623357", "nd_refs": ["9649251386", "4547300236"], "highway": "secondary"}
{"id": "763409443", "nd_refs": ["7133541707", "6379988229", "10171408072", "4177086679"], "highway": "tertiary"}
{"id": "765856565", "nd_refs": ["7152702772", "295219504"], "highway": "secondary"}
{"id": "765856566", "nd_refs": ["7152702773", "733637423", "7152732532"], "highway": "motorway"}
{"id": "765856567", "nd_refs": ["7152702774", "314079678", "6460026503", "7152702773"], "highway": "motorway"}
{"id": "765856568", "nd_refs": ["7152702775", "4761685558", "65308756"], "highway": "secondary"}
{"id": "765856569", "nd_refs": ["7152702776", "6639439158"], "highway": "secondary"}
{"id": "765856570", "nd_refs": ["7152702777", "295220015", "7152702778"], "highway": "motorway_link"}
{"id": "765856571", "nd_refs": ["7152702778", "7152700760"], "highway": "motorway_link"}
{"id": "765856572", "nd_refs": ["7152702779", "6460026512", "7152700758"], "highway": "motorway_link"}
{"id": "765856573", "nd_refs": ["7152702780", "6460026506", "7152702779"], "highway": "motorway_link"}
{"id": "765856574", "nd_refs": ["7152702781", "6639439159"], "highway": "secondary"}
{"id": "765856575", "nd_refs": ["7152702782", "4761685556", "4761685554"], "highway": "secondary"}
{"id": "765856576", "nd_refs": ["7152702783", "4761685554"], "highway": "secondary"}
{"id": "765856577", "nd_refs": ["7152702784", "4761685555", "7152702783"], "highway": "secondary"}
{"id": "765856753", "nd_refs": ["7152700757", "314078883", "7152702777"], "highway": "motorway_link"}
{"id": "765856754", "nd_refs": ["7152700758", "6460026520", "6460026505", "6460026493", "295221752", "733627034", "65283790", "733626661", "295221767", "733626665", "65283798", "733626671", "300757630", "733626677", "300757631", "733625764", "65283800", "6460026521", "733625766", "65283804", "733625769", "314079060", "6460026504", "314079061", "65283808", "733624873", "298081840", "733624877", "733624608", "733624612", "300757632", "6460026522", "314079066", "6460026523", "314079203", "318260226", "318260227", "733624629", "733624631", "308712276"], "highway": "motorway_link"}
{"id": "765856755", "nd_refs": ["7152700759", "7152702780"], "highway": "motorway_link"}
{"id": "765856756", "nd_refs": ["7152700760", "733630089", "733630094", "295221942"], "highway": "motorway_link"}
{"id": "765856919", "nd_refs": ["7152732531", "295220168", "7152702774"], "highway": "motorway"}
{"id": "765856920", "nd_refs": ["7152732532", "6460026500", "65374260", "6460026510", "733637435", "6460026497", "65374264", "6460026513", "733637444", "6460026511", "65374267", "733637451", "6460026519", "65374268", "733638758", "65286490", "733638760", "65374269", "733638763", "733638765", "733638767", "65374270", "299388079", "6460058451", "65374273", "733638792", "65374276", "733638793", "314079692"], "highway": "motorway"}
{"id": "765881873", "nd_refs": ["7153004350", "7153004356", "7153004351"], "highway": "service"}
{"id": "772325369", "nd_refs": ["7210516368", "6456587006", "2304626320", "6456587005", "6456587007"], "highway": "tertiary"}
{"id": "774852559", "nd_refs": ["7228981007", "5487354242"], "highway": "footway"}
{"id": "779092571", "nd_refs": ["7274242032", "10740751440", "65283764"], "highway": "secondary"}
{"id": "779092572", "nd_refs": ["7274242033", "7171384821", "7171384820"], "highway": "service"}
{"id": "779093219", "nd_refs": ["7274235241", "2315555398", "5019919800", "7274274388"], "highway": "secondary"}
{"id": "779093220", "nd_refs": ["7274235242", "4547300232", "5019919799"], "highway": "secondary"}
{"id": "779093221", "nd_refs": ["7274235243", "1677798455"], "highway": "tertiary"}
{"id": "779094128", "nd_refs": ["7274274386", "4547300233", "5019919809", "5019919808", "4012499531"], "highway": "secondary"}
{"id": "779094129", "nd_refs": ["7274274388", "65290267"], "highway": "secondary"}
{"id": "779094130", "nd_refs": ["7153004351", "7153004352", "7153004353", "7153004354", "7153004355", "7274242033"], "highway": "service"}
{"id": "784325412", "nd_refs": ["2548095086", "7326724449", "7721364113", "7326724450", "7326724451", "7326724454", "7326724452", "7326724453"], "highway": "secondary_link"}
{"id": "784325413", "nd_refs": ["7326724453", "3532719203", "6582318640", "65315495", "5487246115", "423777917"], "highway": "secondary"}
{"id": "806341915", "nd_refs": ["7540414857", "7540414860", "7540414858", "7540414859"], "highway": "service"}
{"id": "806786951", "nd_refs": ["1266422681", "7544483876", "7544483877"], "highway": "service"}
{"id": "819652177", "nd_refs": ["2583378552", "7654097584"], "highway": "service"}
{"id": "819652178", "nd_refs": ["2583378551", "65325015"], "highway": "service"}
{"id": "819652179", "nd_refs": ["7654099285", "7654099286"], "highway": "service"}
{"id": "902683299", "nd_refs": ["8384073015", "8384073016"], "highway": "service"}
{"id": "922503884", "nd_refs": ["65310196", "10741065299", "65345333"], "highway": "secondary"}
{"id": "922503885", "nd_refs": ["65310196", "5438332446", "5438332449", "10713395410", "10739115723", "65310197"], "highway": "residential"}
{"id": "922508900", "nd_refs": ["65345333", "65317356", "10123618458", "65290947", "10123618459", "265673998"], "highway": "residential"}
{"id": "922508901", "nd_refs": ["65345333", "10741123228", "6925161656", "65308767"], "highway": "secondary"}
{"id": "937907545", "nd_refs": ["1677798455", "5438253613", "6914381207", "5438253606"], "highway": "tertiary"}
{"id": "955907955", "nd_refs": ["1677798439", "5987119090", "65294602", "5987119089", "4941620828", "4941620831", "65303878", "65282185"], "highway": "residential"}
{"id": "955907956", "nd_refs": ["65282185", "6515873893", "6515873894", "65340073"], "highway": "residential"}
{"id": "955907957", "nd_refs": ["65303897", "65303899"], "highway": "residential"}
{"id": "975979531", "nd_refs": ["4941620842", "6913643042", "65294604"], "highway": "residential"}
{"id": "1006832113", "nd_refs": ["11168062611", "11168062612", "9288964503", "9288964504", "9288964506"], "highway": "footway"}
{"id": "1006832114", "nd_refs": ["9288964500", "9288964512", "9288964501"], "highway": "footway"}
{"id": "1006832115", "nd_refs": ["9288964506", "9288964514", "9288964499"], "highway": "footway"}
{"id": "1006832116", "nd_refs": ["9288964499", "11168062610", "9288964500"], "highway": "footway"}
{"id": "1006832117", "nd_refs": ["9288964502", "9288964513", "9288964505"], "highway": "footway"}
{"id": "1006832118", "nd_refs": ["9288964501", "9288964511", "9288964502"], "highway": "footway"}
{"id": "1020770381", "nd_refs": ["9414763700", "6460058452"], "highway": "motorway_link"}
{"id": "1027285198", "nd_refs": ["6639439157", "295219758", "65315506", "9470669678"], "highway": "secondary"}
{"id": "1032603811", "nd_refs": ["9514045389", "10739074225", "65317350"], "highway": "secondary"}
{"id": "1049986923", "nd_refs": ["4012499531", "4547300234", "4547300235", "9649251386"], "highway": "secondary"}
{"id": "1049986924", "nd_refs": ["4547300236", "4547300237"], "highway": "secondary"}
{"id": "1068255801", "nd_refs": ["2548095086", "2548141868"], "highway": "tertiary"}
{"id": "1078121055", "nd_refs": ["10917204514", "10917204513", "10917204515", "9884410728", "10917204529"], "highway": "footway"}
{"id": "1078706849", "nd_refs": ["7210516368", "2304626340", "2304626288", "2304626363"], "highway": "tertiary"}
{"id": "1082634590", "nd_refs": ["9921917127", "65317350"], "highway": "residential"}
{"id": "1082634591", "nd_refs": ["9921917128", "6913643012", "10741575900", "65317347"], "highway": "residential"}
{"id": "1082634592", "nd_refs": ["9921917129", "10739115720", "65310197"], "highway": "residential"}
{"id": "1082634593", "nd_refs": ["9921917130", "65294608"], "highway": "residential"}
{"id": "1082634594", "nd_refs": ["9921917131", "9921917130"], "highway": "residential"}
{"id": "1082634595", "nd_refs": ["9921917132", "10741133312", "65317344"], "highway": "residential"}
{"id": "1082634597", "nd_refs": ["9921917134", "9921917128"], "highway": "residential"}
{"id": "1082634598", "nd_refs": ["9921917135", "9921917127"], "highway": "residential"}
{"id": "1082831088", "nd_refs": ["9923945213", "9923945214", "9923945215", "9923945216", "9923945213"], "highway": "platform"}
{"id": "1086501010", "nd_refs": ["4761684720", "9955354164"], "highway": "footway"}
{"id": "1089570010", "nd_refs": ["9980713711", "6913643034", "6913643033", "3532718885", "65303721"], "highway": "tertiary"}
{"id": "1089570011", "nd_refs": ["9980713712", "9980713711"], "highway": "tertiary"}
{"id": "1089570012", "nd_refs": ["9980713713", "9980713712"], "highway": "tertiary"}
{"id": "1089570014", "nd_refs": ["65303721", "6940405176", "3532718884", "9980713716"], "highway": "secondary"}
{"id": "1093790281", "nd_refs": ["2583378551", "2583378552"], "highway": "service"}
{"id": "1100800664", "nd_refs": ["10074639015", "10718390122", "10074639016"], "highway": "service"}
{"id": "1108473143", "nd_refs": ["10142259197", "10142259198"], "highway": "service"}
{"id": "1111545068", "nd_refs": ["65283764", "6460058476", "314079639"], "highway": "motorway_link"}
{"id": "1113001505", "nd_refs": ["65315504", "4880860062", "7248238193", "10183100125"], "highway": "secondary"}
{"id": "1113523548", "nd_refs": ["10187566795", "10187566796", "3617647699"], "highway": "service"}
{"id": "1119780267", "nd_refs": ["10241754058", "5019919811", "5019919810", "7274235242"], "highway": "secondary"}
{"id": "1119780268", "nd_refs": ["5787928067", "4012499529"], "highway": "secondary"}
{"id": "1119780269", "nd_refs": ["4012499529", "5019919813", "5019919812", "10241754058"], "highway": "secondary"}
{"id": "1124361415", "nd_refs": ["10281752882", "6913643020", "10718390144", "65290286"], "highway": "secondary"}
{"id": "1124361416", "nd_refs": ["5020779103", "10281752883"], "highway": "secondary"}
{"id": "1152342081", "nd_refs": ["65290284", "10718390127", "10718390125", "10718390126"], "highway": "service"}
{"id": "1164304385", "nd_refs": ["5438332457", "10828253120"], "highway": "service"}
{"id": "1174903952", "nd_refs": ["10917064503", "10917064504", "10917204505", "10917204506", "10917204507", "10917204508"], "highway": "service"}
{"id": "1174903954", "nd_refs": ["10917204516", "10917204517"], "highway": "footway"}
{"id": "1174903955", "nd_refs": ["10917204515", "10917204516"], "highway": "footway"}
{"id": "1174903956", "nd_refs": ["10917204517", "10917204518"], "highway": "footway"}
{"id": "1174903957", "nd_refs": ["6925562217", "10917204529", "10917204514", "10917204528", "10917204520", "10917204521", "10917204522", "10917204523", "10917204546", "10917204524", "9913647882"], "highway": "footway"}
{"id": "1187064061", "nd_refs": ["11024081042", "4941620870"], "highway": "service"}
{"id": "1201635174", "nd_refs": ["5438253591", "3532719193", "3532718892", "11140731908"], "highway": "tertiary"}
{"id": "1205032702", "nd_refs": ["11168048192", "11168048193"], "highway": "footway"}
{"id": "1205032703", "nd_refs": ["11168048193", "11168048195", "11168048194"], "highway": "footway"}
{"id": "1205032704", "nd_refs": ["11168062608", "11168062609", "11168048202", "11168062607", "11168048203", "11168048204", "11168062605", "11168062606"], "highway": "footway"}
{"id": "1205032705", "nd_refs": ["11168048201", "11168062608"], "highway": "footway"}
{"id": "1205032706", "nd_refs": ["11168048194", "11168048201"], "highway": "footway"}
{"id": "1205032707", "nd_refs": ["11168062609", "11168062610"], "highway": "footway"}
{"id": "1205032708", "nd_refs": ["9288964505", "9288964503"], "highway": "footway"}
{"id": "1205032711", "nd_refs": ["3532718889", "3532718887", "5487354239"], "highway": "footway"}
{"id": "1205032712", "nd_refs": ["11168062629", "3532718888", "6456587015"], "highway": "footway"}
{"id": "1205032713", "nd_refs": ["11168062629", "11168062630"], "highway": "footway"}
{"id": "1205032714", "nd_refs": ["11168062631", "5987119088"], "highway": "footway"}
{"id": "1205032715", "nd_refs": ["6456587016", "3532718886", "11168062632"], "highway": "footway"}
{"id": "1205032716", "nd_refs": ["11168062632", "5987119087"], "highway": "footway"}
{"id": "1205032717", "nd_refs": ["6456587014", "6456587016"], "highway": "footway"}
{"id": "1205032718", "nd_refs": ["5487354240", "11168062633"], "highway": "footway"}
